<?xml version="1.0" encoding="UTF-8" standalone="no" ?>
<gpx xmlns="http://www.topografix.com/GPX/1/1" xmlns:xsi="http://www.w3.org/2001/XMLSchema-instance" xsi:schemaLocation="http://www.topografix.com/GPX/1/1 http://www.topografix.com/GPX/1/1/gpx.xsd" version="1.1" creator="VisuGPX - https://www.visugpx.com">
  <metadata>
    <name>le chemin du petit bonheur</name>
    <desc><![CDATA[situé en haute maurienne se fait en 2jours aller retour ou pour les contemplatifs en trois (plus cool pour les chevaux) attention gîte equestre inexistant, hebergement difficile avec des chevaux reste la solution du bivouac en autonomie.
ce chemin peutertre plus en partant de la station de la norma au-dessus de modane avec un retour apr la rive droite de l\'arc voir sur mapsource,carto exploreur (savoie)]]></desc>
  </metadata>
  <trk>
    <name><![CDATA[le chemin du petit bonheur]]></name>
    <trkseg>
      <trkpt lat="45.22396" lon="6.7759">
        <ele>1249.7</ele>
      </trkpt>
      <trkpt lat="45.22443" lon="6.77673">
        <ele>1245.8</ele>
      </trkpt>
      <trkpt lat="45.22454" lon="6.77725">
        <ele>1239.9</ele>
      </trkpt>
      <trkpt lat="45.22504" lon="6.77831">
        <ele>1238</ele>
      </trkpt>
      <trkpt lat="45.22538" lon="6.77885">
        <ele>1237.5</ele>
      </trkpt>
      <trkpt lat="45.22576" lon="6.77888">
        <ele>1236.5</ele>
      </trkpt>
      <trkpt lat="45.22628" lon="6.77885">
        <ele>1233.9</ele>
      </trkpt>
      <trkpt lat="45.22689" lon="6.77932">
        <ele>1230.8</ele>
      </trkpt>
      <trkpt lat="45.22729" lon="6.77957">
        <ele>1230</ele>
      </trkpt>
      <trkpt lat="45.22789" lon="6.77975">
        <ele>1230.8</ele>
      </trkpt>
      <trkpt lat="45.22816" lon="6.78015">
        <ele>1233.2</ele>
      </trkpt>
      <trkpt lat="45.2284" lon="6.78046">
        <ele>1235.5</ele>
      </trkpt>
      <trkpt lat="45.22873" lon="6.78074">
        <ele>1234.3</ele>
      </trkpt>
      <trkpt lat="45.22888" lon="6.78139">
        <ele>1233.1</ele>
      </trkpt>
      <trkpt lat="45.22897" lon="6.78187">
        <ele>1229.6</ele>
      </trkpt>
      <trkpt lat="45.22912" lon="6.78211">
        <ele>1227.6</ele>
      </trkpt>
      <trkpt lat="45.22931" lon="6.78203">
        <ele>1225</ele>
      </trkpt>
      <trkpt lat="45.22956" lon="6.78135">
        <ele>1222.6</ele>
      </trkpt>
      <trkpt lat="45.22983" lon="6.78121">
        <ele>1220.5</ele>
      </trkpt>
      <trkpt lat="45.23068" lon="6.78204">
        <ele>1221</ele>
      </trkpt>
      <trkpt lat="45.23143" lon="6.78366">
        <ele>1222.1</ele>
      </trkpt>
      <trkpt lat="45.2318" lon="6.7851">
        <ele>1222.7</ele>
      </trkpt>
      <trkpt lat="45.23202" lon="6.78502">
        <ele>1222.3</ele>
      </trkpt>
      <trkpt lat="45.23246" lon="6.78607">
        <ele>1224</ele>
      </trkpt>
      <trkpt lat="45.23221" lon="6.78663">
        <ele>1225.4</ele>
      </trkpt>
      <trkpt lat="45.23206" lon="6.78706">
        <ele>1231.9</ele>
      </trkpt>
      <trkpt lat="45.23205" lon="6.78713">
        <ele>1231.7</ele>
      </trkpt>
      <trkpt lat="45.23222" lon="6.78755">
        <ele>1229.6</ele>
      </trkpt>
      <trkpt lat="45.23271" lon="6.78804">
        <ele>1231.4</ele>
      </trkpt>
      <trkpt lat="45.23318" lon="6.78827">
        <ele>1232.5</ele>
      </trkpt>
      <trkpt lat="45.23334" lon="6.78921">
        <ele>1238.1</ele>
      </trkpt>
      <trkpt lat="45.23374" lon="6.78994">
        <ele>1242.9</ele>
      </trkpt>
      <trkpt lat="45.23374" lon="6.79">
        <ele>1243.6</ele>
      </trkpt>
      <trkpt lat="45.23403" lon="6.79019">
        <ele>1246.7</ele>
      </trkpt>
      <trkpt lat="45.23446" lon="6.79118">
        <ele>1252.6</ele>
      </trkpt>
      <trkpt lat="45.23468" lon="6.7919">
        <ele>1256.3</ele>
      </trkpt>
      <trkpt lat="45.23467" lon="6.79196">
        <ele>1256.8</ele>
      </trkpt>
      <trkpt lat="45.23491" lon="6.79223">
        <ele>1259.2</ele>
      </trkpt>
      <trkpt lat="45.23531" lon="6.79249">
        <ele>1260.3</ele>
      </trkpt>
      <trkpt lat="45.23577" lon="6.79272">
        <ele>1251.4</ele>
      </trkpt>
      <trkpt lat="45.23612" lon="6.793">
        <ele>1249</ele>
      </trkpt>
      <trkpt lat="45.2372" lon="6.79305">
        <ele>1238.4</ele>
      </trkpt>
      <trkpt lat="45.23905" lon="6.79473">
        <ele>1236.4</ele>
      </trkpt>
      <trkpt lat="45.23976" lon="6.79498">
        <ele>1232.8</ele>
      </trkpt>
      <trkpt lat="45.24049" lon="6.7952">
        <ele>1234.5</ele>
      </trkpt>
      <trkpt lat="45.24054" lon="6.79524">
        <ele>1234.7</ele>
      </trkpt>
      <trkpt lat="45.24122" lon="6.79555">
        <ele>1239.7</ele>
      </trkpt>
      <trkpt lat="45.24185" lon="6.79563">
        <ele>1246.9</ele>
      </trkpt>
      <trkpt lat="45.24265" lon="6.79534">
        <ele>1253.4</ele>
      </trkpt>
      <trkpt lat="45.24291" lon="6.79559">
        <ele>1258.9</ele>
      </trkpt>
      <trkpt lat="45.24291" lon="6.79565">
        <ele>1259.5</ele>
      </trkpt>
      <trkpt lat="45.24399" lon="6.79676">
        <ele>1262.4</ele>
      </trkpt>
      <trkpt lat="45.24448" lon="6.79747">
        <ele>1262.5</ele>
      </trkpt>
      <trkpt lat="45.24482" lon="6.79784">
        <ele>1261.1</ele>
      </trkpt>
      <trkpt lat="45.24594" lon="6.79864">
        <ele>1254.1</ele>
      </trkpt>
      <trkpt lat="45.24616" lon="6.79884">
        <ele>1253.5</ele>
      </trkpt>
      <trkpt lat="45.24653" lon="6.79973">
        <ele>1265.9</ele>
      </trkpt>
      <trkpt lat="45.24704" lon="6.80032">
        <ele>1268.4</ele>
      </trkpt>
      <trkpt lat="45.24764" lon="6.80059">
        <ele>1269.1</ele>
      </trkpt>
      <trkpt lat="45.24798" lon="6.80055">
        <ele>1271.2</ele>
      </trkpt>
      <trkpt lat="45.24861" lon="6.79997">
        <ele>1264.8</ele>
      </trkpt>
      <trkpt lat="45.24897" lon="6.79993">
        <ele>1268.5</ele>
      </trkpt>
      <trkpt lat="45.24927" lon="6.7998">
        <ele>1269.3</ele>
      </trkpt>
      <trkpt lat="45.24952" lon="6.80026">
        <ele>1274.2</ele>
      </trkpt>
      <trkpt lat="45.24963" lon="6.80094">
        <ele>1276.6</ele>
      </trkpt>
      <trkpt lat="45.24975" lon="6.8013">
        <ele>1281.1</ele>
      </trkpt>
      <trkpt lat="45.2498" lon="6.80134">
        <ele>1281.4</ele>
      </trkpt>
      <trkpt lat="45.25003" lon="6.80164">
        <ele>1287.2</ele>
      </trkpt>
      <trkpt lat="45.25008" lon="6.80165">
        <ele>1287.2</ele>
      </trkpt>
      <trkpt lat="45.25021" lon="6.80166">
        <ele>1286.7</ele>
      </trkpt>
      <trkpt lat="45.25" lon="6.80081">
        <ele>1289.8</ele>
      </trkpt>
      <trkpt lat="45.25" lon="6.80075">
        <ele>1289.7</ele>
      </trkpt>
      <trkpt lat="45.25017" lon="6.80054">
        <ele>1290</ele>
      </trkpt>
      <trkpt lat="45.25039" lon="6.80056">
        <ele>1290.2</ele>
      </trkpt>
      <trkpt lat="45.25069" lon="6.80084">
        <ele>1292.5</ele>
      </trkpt>
      <trkpt lat="45.25103" lon="6.80137">
        <ele>1296.4</ele>
      </trkpt>
      <trkpt lat="45.25108" lon="6.80144">
        <ele>1297</ele>
      </trkpt>
      <trkpt lat="45.25163" lon="6.80174">
        <ele>1296.7</ele>
      </trkpt>
      <trkpt lat="45.25249" lon="6.80222">
        <ele>1294.2</ele>
      </trkpt>
      <trkpt lat="45.25324" lon="6.80254">
        <ele>1295.2</ele>
      </trkpt>
      <trkpt lat="45.25376" lon="6.80255">
        <ele>1296.9</ele>
      </trkpt>
      <trkpt lat="45.2538" lon="6.80255">
        <ele>1297.1</ele>
      </trkpt>
      <trkpt lat="45.25452" lon="6.80252">
        <ele>1299.4</ele>
      </trkpt>
      <trkpt lat="45.25562" lon="6.80279">
        <ele>1301.4</ele>
      </trkpt>
      <trkpt lat="45.2563" lon="6.8031">
        <ele>1301.1</ele>
      </trkpt>
      <trkpt lat="45.25679" lon="6.80337">
        <ele>1303.7</ele>
      </trkpt>
      <trkpt lat="45.25732" lon="6.80347">
        <ele>1302.4</ele>
      </trkpt>
      <trkpt lat="45.25718" lon="6.80308">
        <ele>1299.1</ele>
      </trkpt>
      <trkpt lat="45.2571" lon="6.80224">
        <ele>1295.5</ele>
      </trkpt>
      <trkpt lat="45.25719" lon="6.80184">
        <ele>1294.2</ele>
      </trkpt>
      <trkpt lat="45.25761" lon="6.80264">
        <ele>1290.9</ele>
      </trkpt>
      <trkpt lat="45.25824" lon="6.80307">
        <ele>1288.2</ele>
      </trkpt>
      <trkpt lat="45.2586" lon="6.80358">
        <ele>1286.4</ele>
      </trkpt>
      <trkpt lat="45.25927" lon="6.80481">
        <ele>1288</ele>
      </trkpt>
      <trkpt lat="45.26" lon="6.80579">
        <ele>1288.7</ele>
      </trkpt>
      <trkpt lat="45.2602" lon="6.80642">
        <ele>1286.9</ele>
      </trkpt>
      <trkpt lat="45.2602" lon="6.8069">
        <ele>1289.2</ele>
      </trkpt>
      <trkpt lat="45.26039" lon="6.80742">
        <ele>1286.5</ele>
      </trkpt>
      <trkpt lat="45.26077" lon="6.80803">
        <ele>1284.6</ele>
      </trkpt>
      <trkpt lat="45.26155" lon="6.80815">
        <ele>1276.9</ele>
      </trkpt>
      <trkpt lat="45.26152" lon="6.80885">
        <ele>1274.2</ele>
      </trkpt>
      <trkpt lat="45.26157" lon="6.81042">
        <ele>1271.2</ele>
      </trkpt>
      <trkpt lat="45.26181" lon="6.81124">
        <ele>1273.2</ele>
      </trkpt>
      <trkpt lat="45.262" lon="6.81214">
        <ele>1282</ele>
      </trkpt>
      <trkpt lat="45.26268" lon="6.81255">
        <ele>1272</ele>
      </trkpt>
      <trkpt lat="45.26297" lon="6.81312">
        <ele>1275.3</ele>
      </trkpt>
      <trkpt lat="45.26378" lon="6.81324">
        <ele>1271.6</ele>
      </trkpt>
      <trkpt lat="45.26525" lon="6.81429">
        <ele>1281.7</ele>
      </trkpt>
      <trkpt lat="45.26594" lon="6.81485">
        <ele>1285.2</ele>
      </trkpt>
      <trkpt lat="45.26635" lon="6.81543">
        <ele>1289.3</ele>
      </trkpt>
      <trkpt lat="45.26664" lon="6.81612">
        <ele>1289.5</ele>
      </trkpt>
      <trkpt lat="45.26693" lon="6.81675">
        <ele>1293.8</ele>
      </trkpt>
      <trkpt lat="45.26725" lon="6.81713">
        <ele>1291.6</ele>
      </trkpt>
      <trkpt lat="45.26729" lon="6.81713">
        <ele>1293.2</ele>
      </trkpt>
      <trkpt lat="45.26778" lon="6.81733">
        <ele>1296.8</ele>
      </trkpt>
      <trkpt lat="45.26839" lon="6.81722">
        <ele>1288.2</ele>
      </trkpt>
      <trkpt lat="45.26875" lon="6.8169">
        <ele>1288.4</ele>
      </trkpt>
      <trkpt lat="45.26916" lon="6.81655">
        <ele>1288.2</ele>
      </trkpt>
      <trkpt lat="45.26982" lon="6.81641">
        <ele>1293.3</ele>
      </trkpt>
      <trkpt lat="45.27072" lon="6.81655">
        <ele>1296.3</ele>
      </trkpt>
      <trkpt lat="45.27077" lon="6.81652">
        <ele>1296.2</ele>
      </trkpt>
      <trkpt lat="45.27123" lon="6.81669">
        <ele>1298.7</ele>
      </trkpt>
      <trkpt lat="45.27192" lon="6.81738">
        <ele>1307.1</ele>
      </trkpt>
      <trkpt lat="45.27234" lon="6.8177">
        <ele>1309.4</ele>
      </trkpt>
      <trkpt lat="45.27307" lon="6.81792">
        <ele>1311.5</ele>
      </trkpt>
      <trkpt lat="45.27366" lon="6.818">
        <ele>1310.6</ele>
      </trkpt>
      <trkpt lat="45.27411" lon="6.81842">
        <ele>1312.6</ele>
      </trkpt>
      <trkpt lat="45.27416" lon="6.81845">
        <ele>1312.9</ele>
      </trkpt>
      <trkpt lat="45.27464" lon="6.81875">
        <ele>1313.8</ele>
      </trkpt>
      <trkpt lat="45.27493" lon="6.81935">
        <ele>1316</ele>
      </trkpt>
      <trkpt lat="45.27487" lon="6.81979">
        <ele>1320.9</ele>
      </trkpt>
      <trkpt lat="45.27487" lon="6.81985">
        <ele>1321.4</ele>
      </trkpt>
      <trkpt lat="45.27509" lon="6.82143">
        <ele>1333.6</ele>
      </trkpt>
      <trkpt lat="45.27524" lon="6.82221">
        <ele>1339.3</ele>
      </trkpt>
      <trkpt lat="45.27514" lon="6.82316">
        <ele>1349.1</ele>
      </trkpt>
      <trkpt lat="45.276" lon="6.82466">
        <ele>1369.1</ele>
      </trkpt>
      <trkpt lat="45.27671" lon="6.82552">
        <ele>1383.6</ele>
      </trkpt>
      <trkpt lat="45.27675" lon="6.82552">
        <ele>1383.7</ele>
      </trkpt>
      <trkpt lat="45.27789" lon="6.82648">
        <ele>1393.8</ele>
      </trkpt>
      <trkpt lat="45.2785" lon="6.82681">
        <ele>1393.5</ele>
      </trkpt>
      <trkpt lat="45.27915" lon="6.82744">
        <ele>1399.5</ele>
      </trkpt>
      <trkpt lat="45.27992" lon="6.82846">
        <ele>1403.6</ele>
      </trkpt>
      <trkpt lat="45.28032" lon="6.82935">
        <ele>1405.3</ele>
      </trkpt>
      <trkpt lat="45.28036" lon="6.82939">
        <ele>1404.9</ele>
      </trkpt>
      <trkpt lat="45.28075" lon="6.83031">
        <ele>1405.9</ele>
      </trkpt>
      <trkpt lat="45.28167" lon="6.83147">
        <ele>1407.1</ele>
      </trkpt>
      <trkpt lat="45.28172" lon="6.83148">
        <ele>1406.4</ele>
      </trkpt>
      <trkpt lat="45.28277" lon="6.83284">
        <ele>1406.5</ele>
      </trkpt>
      <trkpt lat="45.28281" lon="6.83287">
        <ele>1405.5</ele>
      </trkpt>
      <trkpt lat="45.28332" lon="6.83352">
        <ele>1403.5</ele>
      </trkpt>
      <trkpt lat="45.28349" lon="6.83456">
        <ele>1407.7</ele>
      </trkpt>
      <trkpt lat="45.28348" lon="6.83462">
        <ele>1408.3</ele>
      </trkpt>
      <trkpt lat="45.28346" lon="6.83468">
        <ele>1409.8</ele>
      </trkpt>
      <trkpt lat="45.28342" lon="6.83608">
        <ele>1414.7</ele>
      </trkpt>
      <trkpt lat="45.28331" lon="6.83713">
        <ele>1428.2</ele>
      </trkpt>
      <trkpt lat="45.28329" lon="6.83888">
        <ele>1442.2</ele>
      </trkpt>
      <trkpt lat="45.28333" lon="6.83939">
        <ele>1443.7</ele>
      </trkpt>
      <trkpt lat="45.28333" lon="6.83946">
        <ele>1444.1</ele>
      </trkpt>
      <trkpt lat="45.28329" lon="6.84003">
        <ele>1445.7</ele>
      </trkpt>
      <trkpt lat="45.28333" lon="6.84006">
        <ele>1443.4</ele>
      </trkpt>
      <trkpt lat="45.28345" lon="6.84103">
        <ele>1444.4</ele>
      </trkpt>
      <trkpt lat="45.28312" lon="6.84126">
        <ele>1458.1</ele>
      </trkpt>
      <trkpt lat="45.28312" lon="6.84132">
        <ele>1458.4</ele>
      </trkpt>
      <trkpt lat="45.28305" lon="6.84154">
        <ele>1467.5</ele>
      </trkpt>
      <trkpt lat="45.28296" lon="6.84141">
        <ele>1466.4</ele>
      </trkpt>
      <trkpt lat="45.28298" lon="6.8408">
        <ele>1463.7</ele>
      </trkpt>
      <trkpt lat="45.28288" lon="6.84066">
        <ele>1467</ele>
      </trkpt>
      <trkpt lat="45.28298" lon="6.84035">
        <ele>1460.7</ele>
      </trkpt>
      <trkpt lat="45.28295" lon="6.84006">
        <ele>1462.8</ele>
      </trkpt>
      <trkpt lat="45.28303" lon="6.83969">
        <ele>1461.7</ele>
      </trkpt>
      <trkpt lat="45.28289" lon="6.83936">
        <ele>1463.6</ele>
      </trkpt>
      <trkpt lat="45.28273" lon="6.83941">
        <ele>1469.3</ele>
      </trkpt>
      <trkpt lat="45.28264" lon="6.83985">
        <ele>1477.6</ele>
      </trkpt>
      <trkpt lat="45.28259" lon="6.84115">
        <ele>1483.6</ele>
      </trkpt>
      <trkpt lat="45.28256" lon="6.84121">
        <ele>1484.7</ele>
      </trkpt>
      <trkpt lat="45.28258" lon="6.84192">
        <ele>1493.1</ele>
      </trkpt>
      <trkpt lat="45.2826" lon="6.84198">
        <ele>1493.3</ele>
      </trkpt>
      <trkpt lat="45.28266" lon="6.84272">
        <ele>1500</ele>
      </trkpt>
      <trkpt lat="45.28279" lon="6.84334">
        <ele>1509.7</ele>
      </trkpt>
      <trkpt lat="45.28312" lon="6.84365">
        <ele>1502.7</ele>
      </trkpt>
      <trkpt lat="45.28313" lon="6.84397">
        <ele>1503.1</ele>
      </trkpt>
      <trkpt lat="45.28296" lon="6.84482">
        <ele>1515.5</ele>
      </trkpt>
      <trkpt lat="45.283" lon="6.84594">
        <ele>1519</ele>
      </trkpt>
      <trkpt lat="45.28286" lon="6.8473">
        <ele>1511.9</ele>
      </trkpt>
      <trkpt lat="45.28263" lon="6.84843">
        <ele>1512.6</ele>
      </trkpt>
      <trkpt lat="45.28279" lon="6.84892">
        <ele>1507.4</ele>
      </trkpt>
      <trkpt lat="45.28279" lon="6.84899">
        <ele>1507.5</ele>
      </trkpt>
      <trkpt lat="45.28277" lon="6.84997">
        <ele>1499.7</ele>
      </trkpt>
      <trkpt lat="45.28265" lon="6.8507">
        <ele>1497</ele>
      </trkpt>
      <trkpt lat="45.28253" lon="6.85136">
        <ele>1499.8</ele>
      </trkpt>
      <trkpt lat="45.28214" lon="6.85232">
        <ele>1500.7</ele>
      </trkpt>
      <trkpt lat="45.2822" lon="6.85289">
        <ele>1501.3</ele>
      </trkpt>
      <trkpt lat="45.2821" lon="6.8533">
        <ele>1504.6</ele>
      </trkpt>
      <trkpt lat="45.28263" lon="6.85408">
        <ele>1492.6</ele>
      </trkpt>
      <trkpt lat="45.28262" lon="6.85414">
        <ele>1493.2</ele>
      </trkpt>
      <trkpt lat="45.28246" lon="6.85477">
        <ele>1496.8</ele>
      </trkpt>
      <trkpt lat="45.28249" lon="6.85522">
        <ele>1495.2</ele>
      </trkpt>
      <trkpt lat="45.28249" lon="6.85528">
        <ele>1494.6</ele>
      </trkpt>
      <trkpt lat="45.28231" lon="6.85581">
        <ele>1504.3</ele>
      </trkpt>
      <trkpt lat="45.28246" lon="6.85646">
        <ele>1497.8</ele>
      </trkpt>
      <trkpt lat="45.28224" lon="6.85705">
        <ele>1500.6</ele>
      </trkpt>
      <trkpt lat="45.28244" lon="6.8576">
        <ele>1497.7</ele>
      </trkpt>
      <trkpt lat="45.28244" lon="6.85767">
        <ele>1498.4</ele>
      </trkpt>
      <trkpt lat="45.2826" lon="6.85925">
        <ele>1493.1</ele>
      </trkpt>
      <trkpt lat="45.28259" lon="6.85931">
        <ele>1493.4</ele>
      </trkpt>
      <trkpt lat="45.28256" lon="6.85963">
        <ele>1493.9</ele>
      </trkpt>
      <trkpt lat="45.2823" lon="6.85999">
        <ele>1497.4</ele>
      </trkpt>
      <trkpt lat="45.28231" lon="6.86018">
        <ele>1500.9</ele>
      </trkpt>
      <trkpt lat="45.28236" lon="6.86018">
        <ele>1499</ele>
      </trkpt>
      <trkpt lat="45.28262" lon="6.86087">
        <ele>1493.6</ele>
      </trkpt>
      <trkpt lat="45.28257" lon="6.86113">
        <ele>1493.9</ele>
      </trkpt>
      <trkpt lat="45.28224" lon="6.86148">
        <ele>1494.7</ele>
      </trkpt>
      <trkpt lat="45.28217" lon="6.86199">
        <ele>1494.3</ele>
      </trkpt>
      <trkpt lat="45.2823" lon="6.86276">
        <ele>1490.5</ele>
      </trkpt>
      <trkpt lat="45.28232" lon="6.86283">
        <ele>1489.4</ele>
      </trkpt>
      <trkpt lat="45.28231" lon="6.86289">
        <ele>1489.3</ele>
      </trkpt>
      <trkpt lat="45.2822" lon="6.86336">
        <ele>1490.3</ele>
      </trkpt>
      <trkpt lat="45.28222" lon="6.86454">
        <ele>1489.9</ele>
      </trkpt>
      <trkpt lat="45.28222" lon="6.86461">
        <ele>1490.1</ele>
      </trkpt>
      <trkpt lat="45.28222" lon="6.8647">
        <ele>1490.3</ele>
      </trkpt>
      <trkpt lat="45.28233" lon="6.86573">
        <ele>1481.8</ele>
      </trkpt>
      <trkpt lat="45.28235" lon="6.8658">
        <ele>1481.2</ele>
      </trkpt>
      <trkpt lat="45.28247" lon="6.86683">
        <ele>1472.3</ele>
      </trkpt>
      <trkpt lat="45.28259" lon="6.86725">
        <ele>1465.5</ele>
      </trkpt>
      <trkpt lat="45.28246" lon="6.86862">
        <ele>1452.9</ele>
      </trkpt>
      <trkpt lat="45.28275" lon="6.86985">
        <ele>1448</ele>
      </trkpt>
      <trkpt lat="45.2828" lon="6.87081">
        <ele>1445.1</ele>
      </trkpt>
      <trkpt lat="45.28279" lon="6.87164">
        <ele>1438.7</ele>
      </trkpt>
      <trkpt lat="45.28278" lon="6.87234">
        <ele>1446.4</ele>
      </trkpt>
      <trkpt lat="45.28278" lon="6.87241">
        <ele>1447.1</ele>
      </trkpt>
      <trkpt lat="45.28294" lon="6.87287">
        <ele>1441.7</ele>
      </trkpt>
      <trkpt lat="45.28299" lon="6.8729">
        <ele>1439.5</ele>
      </trkpt>
      <trkpt lat="45.28321" lon="6.87295">
        <ele>1432.6</ele>
      </trkpt>
      <trkpt lat="45.28307" lon="6.87246">
        <ele>1428.7</ele>
      </trkpt>
      <trkpt lat="45.2833" lon="6.87245">
        <ele>1425.7</ele>
      </trkpt>
      <trkpt lat="45.28347" lon="6.87275">
        <ele>1417.6</ele>
      </trkpt>
      <trkpt lat="45.2834" lon="6.87373">
        <ele>1427.7</ele>
      </trkpt>
      <trkpt lat="45.28374" lon="6.87494">
        <ele>1420.9</ele>
      </trkpt>
      <trkpt lat="45.28371" lon="6.87567">
        <ele>1420</ele>
      </trkpt>
      <trkpt lat="45.2837" lon="6.87574">
        <ele>1420.5</ele>
      </trkpt>
      <trkpt lat="45.28383" lon="6.87651">
        <ele>1413.8</ele>
      </trkpt>
      <trkpt lat="45.28396" lon="6.87876">
        <ele>1400.4</ele>
      </trkpt>
      <trkpt lat="45.28419" lon="6.87986">
        <ele>1400.6</ele>
      </trkpt>
      <trkpt lat="45.28419" lon="6.87993">
        <ele>1401</ele>
      </trkpt>
      <trkpt lat="45.28418" lon="6.88066">
        <ele>1407.7</ele>
      </trkpt>
      <trkpt lat="45.2842" lon="6.88072">
        <ele>1407.7</ele>
      </trkpt>
      <trkpt lat="45.2842" lon="6.88079">
        <ele>1408.4</ele>
      </trkpt>
      <trkpt lat="45.28437" lon="6.88195">
        <ele>1407.3</ele>
      </trkpt>
      <trkpt lat="45.28437" lon="6.88201">
        <ele>1407.4</ele>
      </trkpt>
      <trkpt lat="45.28434" lon="6.88217">
        <ele>1409.7</ele>
      </trkpt>
      <trkpt lat="45.28432" lon="6.8823">
        <ele>1411.9</ele>
      </trkpt>
      <trkpt lat="45.28433" lon="6.88364">
        <ele>1409</ele>
      </trkpt>
      <trkpt lat="45.28471" lon="6.88322">
        <ele>1399.7</ele>
      </trkpt>
      <trkpt lat="45.28486" lon="6.88381">
        <ele>1398.2</ele>
      </trkpt>
      <trkpt lat="45.28488" lon="6.88388">
        <ele>1398.2</ele>
      </trkpt>
      <trkpt lat="45.28521" lon="6.88796">
        <ele>1408.2</ele>
      </trkpt>
      <trkpt lat="45.28529" lon="6.8893">
        <ele>1409.7</ele>
      </trkpt>
      <trkpt lat="45.28529" lon="6.88937">
        <ele>1409.3</ele>
      </trkpt>
      <trkpt lat="45.28529" lon="6.88943">
        <ele>1408.9</ele>
      </trkpt>
      <trkpt lat="45.28533" lon="6.89001">
        <ele>1407.9</ele>
      </trkpt>
      <trkpt lat="45.2853" lon="6.8901">
        <ele>1408.5</ele>
      </trkpt>
      <trkpt lat="45.2853" lon="6.89016">
        <ele>1408.5</ele>
      </trkpt>
      <trkpt lat="45.2853" lon="6.89026">
        <ele>1408.6</ele>
      </trkpt>
      <trkpt lat="45.28502" lon="6.891">
        <ele>1409</ele>
      </trkpt>
      <trkpt lat="45.28499" lon="6.8911">
        <ele>1409</ele>
      </trkpt>
      <trkpt lat="45.28497" lon="6.89119">
        <ele>1410.2</ele>
      </trkpt>
      <trkpt lat="45.28491" lon="6.89265">
        <ele>1413.9</ele>
      </trkpt>
      <trkpt lat="45.28471" lon="6.89353">
        <ele>1420.6</ele>
      </trkpt>
      <trkpt lat="45.28475" lon="6.89487">
        <ele>1428.2</ele>
      </trkpt>
      <trkpt lat="45.28509" lon="6.89583">
        <ele>1431.9</ele>
      </trkpt>
      <trkpt lat="45.28511" lon="6.89589">
        <ele>1432.1</ele>
      </trkpt>
      <trkpt lat="45.28518" lon="6.89628">
        <ele>1433.3</ele>
      </trkpt>
      <trkpt lat="45.28523" lon="6.89629">
        <ele>1433</ele>
      </trkpt>
      <trkpt lat="45.28606" lon="6.89741">
        <ele>1429.5</ele>
      </trkpt>
      <trkpt lat="45.28606" lon="6.89747">
        <ele>1429.8</ele>
      </trkpt>
      <trkpt lat="45.28606" lon="6.89753">
        <ele>1430.3</ele>
      </trkpt>
      <trkpt lat="45.28615" lon="6.8986">
        <ele>1434.3</ele>
      </trkpt>
      <trkpt lat="45.28613" lon="6.89952">
        <ele>1437.1</ele>
      </trkpt>
      <trkpt lat="45.28613" lon="6.89958">
        <ele>1437.3</ele>
      </trkpt>
      <trkpt lat="45.28702" lon="6.90109">
        <ele>1439.2</ele>
      </trkpt>
      <trkpt lat="45.28706" lon="6.9011">
        <ele>1438.3</ele>
      </trkpt>
      <trkpt lat="45.28708" lon="6.90116">
        <ele>1438.5</ele>
      </trkpt>
      <trkpt lat="45.28754" lon="6.90145">
        <ele>1433.6</ele>
      </trkpt>
      <trkpt lat="45.28826" lon="6.90266">
        <ele>1441.6</ele>
      </trkpt>
      <trkpt lat="45.2889" lon="6.90412">
        <ele>1447.8</ele>
      </trkpt>
      <trkpt lat="45.28856" lon="6.90457">
        <ele>1449.5</ele>
      </trkpt>
      <trkpt lat="45.28862" lon="6.90483">
        <ele>1452</ele>
      </trkpt>
      <trkpt lat="45.28887" lon="6.90485">
        <ele>1453.8</ele>
      </trkpt>
      <trkpt lat="45.28929" lon="6.90549">
        <ele>1459.3</ele>
      </trkpt>
      <trkpt lat="45.28945" lon="6.90653">
        <ele>1465.5</ele>
      </trkpt>
      <trkpt lat="45.28949" lon="6.90723">
        <ele>1469.5</ele>
      </trkpt>
      <trkpt lat="45.28942" lon="6.90777">
        <ele>1469.7</ele>
      </trkpt>
      <trkpt lat="45.28947" lon="6.90889">
        <ele>1475.2</ele>
      </trkpt>
      <trkpt lat="45.28944" lon="6.90895">
        <ele>1476.5</ele>
      </trkpt>
      <trkpt lat="45.28914" lon="6.90963">
        <ele>1477.2</ele>
      </trkpt>
      <trkpt lat="45.28915" lon="6.91008">
        <ele>1480.1</ele>
      </trkpt>
      <trkpt lat="45.2896" lon="6.9112">
        <ele>1481.5</ele>
      </trkpt>
      <trkpt lat="45.28959" lon="6.91126">
        <ele>1481.1</ele>
      </trkpt>
      <trkpt lat="45.28908" lon="6.91173">
        <ele>1483.5</ele>
      </trkpt>
      <trkpt lat="45.28854" lon="6.9122">
        <ele>1489.7</ele>
      </trkpt>
      <trkpt lat="45.28834" lon="6.91263">
        <ele>1495.3</ele>
      </trkpt>
      <trkpt lat="45.28834" lon="6.91269">
        <ele>1496</ele>
      </trkpt>
      <trkpt lat="45.28852" lon="6.91322">
        <ele>1500.5</ele>
      </trkpt>
      <trkpt lat="45.28851" lon="6.91417">
        <ele>1507.9</ele>
      </trkpt>
      <trkpt lat="45.28871" lon="6.91511">
        <ele>1510.5</ele>
      </trkpt>
      <trkpt lat="45.28909" lon="6.91684">
        <ele>1506.3</ele>
      </trkpt>
      <trkpt lat="45.28921" lon="6.91739">
        <ele>1506.4</ele>
      </trkpt>
      <trkpt lat="45.2892" lon="6.91745">
        <ele>1507.2</ele>
      </trkpt>
      <trkpt lat="45.28902" lon="6.91852">
        <ele>1513.1</ele>
      </trkpt>
      <trkpt lat="45.28902" lon="6.91859">
        <ele>1513.4</ele>
      </trkpt>
      <trkpt lat="45.28887" lon="6.91963">
        <ele>1514.2</ele>
      </trkpt>
      <trkpt lat="45.28888" lon="6.92049">
        <ele>1515</ele>
      </trkpt>
      <trkpt lat="45.28887" lon="6.92055">
        <ele>1515.3</ele>
      </trkpt>
      <trkpt lat="45.28866" lon="6.92127">
        <ele>1513</ele>
      </trkpt>
      <trkpt lat="45.28866" lon="6.92133">
        <ele>1512.5</ele>
      </trkpt>
      <trkpt lat="45.28866" lon="6.92194">
        <ele>1513.1</ele>
      </trkpt>
      <trkpt lat="45.28912" lon="6.92386">
        <ele>1511.7</ele>
      </trkpt>
      <trkpt lat="45.28927" lon="6.92512">
        <ele>1513.3</ele>
      </trkpt>
      <trkpt lat="45.28937" lon="6.92589">
        <ele>1514.2</ele>
      </trkpt>
      <trkpt lat="45.28971" lon="6.92707">
        <ele>1519.9</ele>
      </trkpt>
      <trkpt lat="45.28982" lon="6.92816">
        <ele>1528.4</ele>
      </trkpt>
      <trkpt lat="45.28982" lon="6.92823">
        <ele>1529.3</ele>
      </trkpt>
      <trkpt lat="45.28999" lon="6.92853">
        <ele>1533.3</ele>
      </trkpt>
      <trkpt lat="45.29026" lon="6.92852">
        <ele>1532.1</ele>
      </trkpt>
      <trkpt lat="45.29025" lon="6.92858">
        <ele>1534</ele>
      </trkpt>
      <trkpt lat="45.29036" lon="6.92878">
        <ele>1538.2</ele>
      </trkpt>
      <trkpt lat="45.29021" lon="6.92918">
        <ele>1543.2</ele>
      </trkpt>
      <trkpt lat="45.29018" lon="6.92925">
        <ele>1543.5</ele>
      </trkpt>
      <trkpt lat="45.29018" lon="6.92931">
        <ele>1544.1</ele>
      </trkpt>
      <trkpt lat="45.29017" lon="6.93004">
        <ele>1548.7</ele>
      </trkpt>
      <trkpt lat="45.29037" lon="6.93019">
        <ele>1552.4</ele>
      </trkpt>
      <trkpt lat="45.29055" lon="6.9296">
        <ele>1554.3</ele>
      </trkpt>
      <trkpt lat="45.29073" lon="6.92961">
        <ele>1556.3</ele>
      </trkpt>
      <trkpt lat="45.29075" lon="6.93079">
        <ele>1565.2</ele>
      </trkpt>
      <trkpt lat="45.29075" lon="6.93086">
        <ele>1565.2</ele>
      </trkpt>
      <trkpt lat="45.29095" lon="6.93145">
        <ele>1569.6</ele>
      </trkpt>
      <trkpt lat="45.29099" lon="6.93148">
        <ele>1570.5</ele>
      </trkpt>
      <trkpt lat="45.29132" lon="6.93218">
        <ele>1575.8</ele>
      </trkpt>
      <trkpt lat="45.29184" lon="6.93321">
        <ele>1584.1</ele>
      </trkpt>
      <trkpt lat="45.29206" lon="6.9339">
        <ele>1587.1</ele>
      </trkpt>
      <trkpt lat="45.29192" lon="6.9345">
        <ele>1595.6</ele>
      </trkpt>
      <trkpt lat="45.29181" lon="6.93503">
        <ele>1595.3</ele>
      </trkpt>
      <trkpt lat="45.29199" lon="6.93562">
        <ele>1600.2</ele>
      </trkpt>
      <trkpt lat="45.29199" lon="6.93568">
        <ele>1600.5</ele>
      </trkpt>
      <trkpt lat="45.29199" lon="6.93575">
        <ele>1600.9</ele>
      </trkpt>
      <trkpt lat="45.29197" lon="6.93619">
        <ele>1602.9</ele>
      </trkpt>
      <trkpt lat="45.29194" lon="6.93625">
        <ele>1603.5</ele>
      </trkpt>
      <trkpt lat="45.29183" lon="6.93672">
        <ele>1609.3</ele>
      </trkpt>
      <trkpt lat="45.2919" lon="6.93721">
        <ele>1616.8</ele>
      </trkpt>
      <trkpt lat="45.29195" lon="6.93724">
        <ele>1616.5</ele>
      </trkpt>
      <trkpt lat="45.29199" lon="6.93731">
        <ele>1617.6</ele>
      </trkpt>
      <trkpt lat="45.29238" lon="6.93776">
        <ele>1619.8</ele>
      </trkpt>
      <trkpt lat="45.29269" lon="6.93839">
        <ele>1621.9</ele>
      </trkpt>
      <trkpt lat="45.29268" lon="6.93849">
        <ele>1623.6</ele>
      </trkpt>
      <trkpt lat="45.29295" lon="6.93912">
        <ele>1629</ele>
      </trkpt>
      <trkpt lat="45.29323" lon="6.93936">
        <ele>1627.8</ele>
      </trkpt>
      <trkpt lat="45.29346" lon="6.93989">
        <ele>1633.7</ele>
      </trkpt>
      <trkpt lat="45.29377" lon="6.94004">
        <ele>1631.1</ele>
      </trkpt>
      <trkpt lat="45.29377" lon="6.94011">
        <ele>1633.3</ele>
      </trkpt>
      <trkpt lat="45.2941" lon="6.94081">
        <ele>1647.9</ele>
      </trkpt>
      <trkpt lat="45.29399" lon="6.94077">
        <ele>1645.8</ele>
      </trkpt>
      <trkpt lat="45.29373" lon="6.94042">
        <ele>1644.2</ele>
      </trkpt>
      <trkpt lat="45.2934" lon="6.94027">
        <ele>1650.9</ele>
      </trkpt>
      <trkpt lat="45.2934" lon="6.94033">
        <ele>1652.8</ele>
      </trkpt>
      <trkpt lat="45.29342" lon="6.9404">
        <ele>1654</ele>
      </trkpt>
      <trkpt lat="45.29367" lon="6.9408">
        <ele>1656.3</ele>
      </trkpt>
      <trkpt lat="45.29372" lon="6.94119">
        <ele>1664</ele>
      </trkpt>
      <trkpt lat="45.29395" lon="6.94169">
        <ele>1668.1</ele>
      </trkpt>
      <trkpt lat="45.29393" lon="6.94216">
        <ele>1676.2</ele>
      </trkpt>
      <trkpt lat="45.29413" lon="6.94279">
        <ele>1682.9</ele>
      </trkpt>
      <trkpt lat="45.29417" lon="6.94286">
        <ele>1683.7</ele>
      </trkpt>
      <trkpt lat="45.29423" lon="6.94359">
        <ele>1692.8</ele>
      </trkpt>
      <trkpt lat="45.2944" lon="6.94434">
        <ele>1701</ele>
      </trkpt>
      <trkpt lat="45.29451" lon="6.94489">
        <ele>1711.7</ele>
      </trkpt>
      <trkpt lat="45.29449" lon="6.94496">
        <ele>1713.2</ele>
      </trkpt>
      <trkpt lat="45.29414" lon="6.94573">
        <ele>1728.4</ele>
      </trkpt>
      <trkpt lat="45.29447" lon="6.94655">
        <ele>1735</ele>
      </trkpt>
      <trkpt lat="45.29451" lon="6.94659">
        <ele>1735.8</ele>
      </trkpt>
      <trkpt lat="45.29472" lon="6.94695">
        <ele>1742.2</ele>
      </trkpt>
      <trkpt lat="45.29474" lon="6.94702">
        <ele>1743.8</ele>
      </trkpt>
      <trkpt lat="45.29474" lon="6.94708">
        <ele>1745.1</ele>
      </trkpt>
      <trkpt lat="45.29499" lon="6.94752">
        <ele>1751.4</ele>
      </trkpt>
      <trkpt lat="45.29498" lon="6.94886">
        <ele>1770.8</ele>
      </trkpt>
      <trkpt lat="45.295" lon="6.94947">
        <ele>1780.3</ele>
      </trkpt>
      <trkpt lat="45.29504" lon="6.94947">
        <ele>1780.2</ele>
      </trkpt>
      <trkpt lat="45.29557" lon="6.95034">
        <ele>1781.2</ele>
      </trkpt>
      <trkpt lat="45.29562" lon="6.95035">
        <ele>1779.9</ele>
      </trkpt>
      <trkpt lat="45.29634" lon="6.95086">
        <ele>1769.5</ele>
      </trkpt>
      <trkpt lat="45.29667" lon="6.95152">
        <ele>1769.1</ele>
      </trkpt>
      <trkpt lat="45.29674" lon="6.95156">
        <ele>1767.7</ele>
      </trkpt>
      <trkpt lat="45.29752" lon="6.95281">
        <ele>1759.6</ele>
      </trkpt>
      <trkpt lat="45.29754" lon="6.95287">
        <ele>1759.3</ele>
      </trkpt>
      <trkpt lat="45.29771" lon="6.95362">
        <ele>1752.9</ele>
      </trkpt>
      <trkpt lat="45.29771" lon="6.95368">
        <ele>1752.9</ele>
      </trkpt>
      <trkpt lat="45.29771" lon="6.95375">
        <ele>1752.9</ele>
      </trkpt>
      <trkpt lat="45.2977" lon="6.95381">
        <ele>1753</ele>
      </trkpt>
      <trkpt lat="45.29782" lon="6.95427">
        <ele>1750.6</ele>
      </trkpt>
      <trkpt lat="45.29815" lon="6.95509">
        <ele>1744</ele>
      </trkpt>
      <trkpt lat="45.29819" lon="6.95513">
        <ele>1743.5</ele>
      </trkpt>
      <trkpt lat="45.29823" lon="6.95513">
        <ele>1742.7</ele>
      </trkpt>
      <trkpt lat="45.2988" lon="6.95607">
        <ele>1734.8</ele>
      </trkpt>
      <trkpt lat="45.29885" lon="6.95608">
        <ele>1733.7</ele>
      </trkpt>
      <trkpt lat="45.29899" lon="6.95689">
        <ele>1732.1</ele>
      </trkpt>
      <trkpt lat="45.29904" lon="6.95692">
        <ele>1731.3</ele>
      </trkpt>
      <trkpt lat="45.29908" lon="6.95693">
        <ele>1730.5</ele>
      </trkpt>
      <trkpt lat="45.2991" lon="6.95699">
        <ele>1730.1</ele>
      </trkpt>
      <trkpt lat="45.29927" lon="6.95736">
        <ele>1725.5</ele>
      </trkpt>
      <trkpt lat="45.30062" lon="6.95852">
        <ele>1710.8</ele>
      </trkpt>
      <trkpt lat="45.30064" lon="6.95859">
        <ele>1712.3</ele>
      </trkpt>
      <trkpt lat="45.30094" lon="6.95893">
        <ele>1710.5</ele>
      </trkpt>
      <trkpt lat="45.30124" lon="6.95912">
        <ele>1710.3</ele>
      </trkpt>
      <trkpt lat="45.30129" lon="6.95912">
        <ele>1710.1</ele>
      </trkpt>
      <trkpt lat="45.30173" lon="6.95874">
        <ele>1702.9</ele>
      </trkpt>
      <trkpt lat="45.30201" lon="6.9587">
        <ele>1700.7</ele>
      </trkpt>
      <trkpt lat="45.30247" lon="6.9588">
        <ele>1695.9</ele>
      </trkpt>
      <trkpt lat="45.30306" lon="6.9594">
        <ele>1692.8</ele>
      </trkpt>
      <trkpt lat="45.30348" lon="6.95959">
        <ele>1688.5</ele>
      </trkpt>
      <trkpt lat="45.30381" lon="6.95975">
        <ele>1686.3</ele>
      </trkpt>
      <trkpt lat="45.30407" lon="6.96005">
        <ele>1684.7</ele>
      </trkpt>
      <trkpt lat="45.30458" lon="6.96019">
        <ele>1677.2</ele>
      </trkpt>
      <trkpt lat="45.30485" lon="6.96066">
        <ele>1672.5</ele>
      </trkpt>
      <trkpt lat="45.30487" lon="6.96073">
        <ele>1671.9</ele>
      </trkpt>
      <trkpt lat="45.3049" lon="6.96172">
        <ele>1670.4</ele>
      </trkpt>
      <trkpt lat="45.30487" lon="6.96181">
        <ele>1671.3</ele>
      </trkpt>
      <trkpt lat="45.30482" lon="6.96245">
        <ele>1672.5</ele>
      </trkpt>
      <trkpt lat="45.30482" lon="6.96251">
        <ele>1672.4</ele>
      </trkpt>
      <trkpt lat="45.30454" lon="6.96322">
        <ele>1674.3</ele>
      </trkpt>
      <trkpt lat="45.30452" lon="6.96329">
        <ele>1674.5</ele>
      </trkpt>
      <trkpt lat="45.30449" lon="6.96335">
        <ele>1674.7</ele>
      </trkpt>
      <trkpt lat="45.30437" lon="6.96404">
        <ele>1672.8</ele>
      </trkpt>
      <trkpt lat="45.30461" lon="6.96479">
        <ele>1670.6</ele>
      </trkpt>
      <trkpt lat="45.30468" lon="6.96528">
        <ele>1670.1</ele>
      </trkpt>
      <trkpt lat="45.30496" lon="6.96623">
        <ele>1671.4</ele>
      </trkpt>
      <trkpt lat="45.3052" lon="6.96689">
        <ele>1671.3</ele>
      </trkpt>
      <trkpt lat="45.30518" lon="6.96695">
        <ele>1671.4</ele>
      </trkpt>
      <trkpt lat="45.30521" lon="6.96768">
        <ele>1671.7</ele>
      </trkpt>
      <trkpt lat="45.30521" lon="6.96775">
        <ele>1671.6</ele>
      </trkpt>
      <trkpt lat="45.30521" lon="6.96781">
        <ele>1671.6</ele>
      </trkpt>
      <trkpt lat="45.30522" lon="6.9681">
        <ele>1672.3</ele>
      </trkpt>
      <trkpt lat="45.30562" lon="6.96928">
        <ele>1672.9</ele>
      </trkpt>
      <trkpt lat="45.30585" lon="6.97032">
        <ele>1674.3</ele>
      </trkpt>
      <trkpt lat="45.30601" lon="6.97085">
        <ele>1675.6</ele>
      </trkpt>
      <trkpt lat="45.30657" lon="6.97198">
        <ele>1677.5</ele>
      </trkpt>
      <trkpt lat="45.30671" lon="6.97238">
        <ele>1677.3</ele>
      </trkpt>
      <trkpt lat="45.30696" lon="6.97275">
        <ele>1676.8</ele>
      </trkpt>
      <trkpt lat="45.30696" lon="6.97281">
        <ele>1677</ele>
      </trkpt>
      <trkpt lat="45.30696" lon="6.97288">
        <ele>1677.3</ele>
      </trkpt>
      <trkpt lat="45.3071" lon="6.97372">
        <ele>1678.9</ele>
      </trkpt>
      <trkpt lat="45.30759" lon="6.97401">
        <ele>1678</ele>
      </trkpt>
      <trkpt lat="45.30758" lon="6.97408">
        <ele>1678.2</ele>
      </trkpt>
      <trkpt lat="45.3076" lon="6.97414">
        <ele>1678.2</ele>
      </trkpt>
      <trkpt lat="45.30808" lon="6.97504">
        <ele>1680.2</ele>
      </trkpt>
      <trkpt lat="45.30813" lon="6.97505">
        <ele>1680.2</ele>
      </trkpt>
      <trkpt lat="45.30837" lon="6.97516">
        <ele>1681.4</ele>
      </trkpt>
      <trkpt lat="45.30844" lon="6.97565">
        <ele>1682.9</ele>
      </trkpt>
      <trkpt lat="45.30876" lon="6.97459">
        <ele>1677.5</ele>
      </trkpt>
      <trkpt lat="45.30907" lon="6.97312">
        <ele>1681.1</ele>
      </trkpt>
      <trkpt lat="45.3094" lon="6.97372">
        <ele>1681.1</ele>
      </trkpt>
      <trkpt lat="45.30944" lon="6.97375">
        <ele>1681.5</ele>
      </trkpt>
      <trkpt lat="45.31009" lon="6.97461">
        <ele>1681.8</ele>
      </trkpt>
      <trkpt lat="45.31074" lon="6.97508">
        <ele>1683</ele>
      </trkpt>
      <trkpt lat="45.31145" lon="6.97549">
        <ele>1682.3</ele>
      </trkpt>
      <trkpt lat="45.31149" lon="6.97549">
        <ele>1682.2</ele>
      </trkpt>
      <trkpt lat="45.3121" lon="6.97548">
        <ele>1682.6</ele>
      </trkpt>
      <trkpt lat="45.31309" lon="6.97601">
        <ele>1683.9</ele>
      </trkpt>
      <trkpt lat="45.31389" lon="6.97633">
        <ele>1686</ele>
      </trkpt>
      <trkpt lat="45.31456" lon="6.97706">
        <ele>1685.6</ele>
      </trkpt>
      <trkpt lat="45.31498" lon="6.9776">
        <ele>1686</ele>
      </trkpt>
      <trkpt lat="45.31565" lon="6.97782">
        <ele>1687.2</ele>
      </trkpt>
      <trkpt lat="45.31628" lon="6.97829">
        <ele>1689.7</ele>
      </trkpt>
      <trkpt lat="45.31692" lon="6.9793">
        <ele>1690.8</ele>
      </trkpt>
      <trkpt lat="45.3172" lon="6.98015">
        <ele>1690.8</ele>
      </trkpt>
      <trkpt lat="45.3172" lon="6.98021">
        <ele>1690.8</ele>
      </trkpt>
      <trkpt lat="45.31727" lon="6.98105">
        <ele>1690</ele>
      </trkpt>
      <trkpt lat="45.31732" lon="6.98112">
        <ele>1690</ele>
      </trkpt>
      <trkpt lat="45.31731" lon="6.98118">
        <ele>1689.7</ele>
      </trkpt>
      <trkpt lat="45.31731" lon="6.98125">
        <ele>1689.5</ele>
      </trkpt>
      <trkpt lat="45.31731" lon="6.98131">
        <ele>1689.3</ele>
      </trkpt>
      <trkpt lat="45.3173" lon="6.98137">
        <ele>1689.1</ele>
      </trkpt>
      <trkpt lat="45.31815" lon="6.98208">
        <ele>1691.4</ele>
      </trkpt>
      <trkpt lat="45.3182" lon="6.98215">
        <ele>1691.2</ele>
      </trkpt>
      <trkpt lat="45.31922" lon="6.9831">
        <ele>1693.8</ele>
      </trkpt>
      <trkpt lat="45.31921" lon="6.98316">
        <ele>1693.1</ele>
      </trkpt>
      <trkpt lat="45.31981" lon="6.98401">
        <ele>1694</ele>
      </trkpt>
      <trkpt lat="45.31981" lon="6.98407">
        <ele>1693.8</ele>
      </trkpt>
      <trkpt lat="45.31983" lon="6.98414">
        <ele>1693.8</ele>
      </trkpt>
      <trkpt lat="45.32009" lon="6.98486">
        <ele>1694.3</ele>
      </trkpt>
      <trkpt lat="45.32035" lon="6.98511">
        <ele>1696</ele>
      </trkpt>
      <trkpt lat="45.32039" lon="6.98511">
        <ele>1696.2</ele>
      </trkpt>
      <trkpt lat="45.3207" lon="6.98632">
        <ele>1701.1</ele>
      </trkpt>
      <trkpt lat="45.3207" lon="6.98638">
        <ele>1700.8</ele>
      </trkpt>
      <trkpt lat="45.32074" lon="6.98648">
        <ele>1701.8</ele>
      </trkpt>
      <trkpt lat="45.32078" lon="6.98655">
        <ele>1702.8</ele>
      </trkpt>
      <trkpt lat="45.3208" lon="6.98662">
        <ele>1702.7</ele>
      </trkpt>
      <trkpt lat="45.32085" lon="6.98665">
        <ele>1703.6</ele>
      </trkpt>
      <trkpt lat="45.32084" lon="6.98672">
        <ele>1702.6</ele>
      </trkpt>
      <trkpt lat="45.32089" lon="6.98678">
        <ele>1703.2</ele>
      </trkpt>
      <trkpt lat="45.32088" lon="6.98748">
        <ele>1698.5</ele>
      </trkpt>
      <trkpt lat="45.3209" lon="6.98755">
        <ele>1699.3</ele>
      </trkpt>
      <trkpt lat="45.32092" lon="6.98762">
        <ele>1699.8</ele>
      </trkpt>
      <trkpt lat="45.32124" lon="6.98847">
        <ele>1705.4</ele>
      </trkpt>
      <trkpt lat="45.32122" lon="6.98854">
        <ele>1703.8</ele>
      </trkpt>
      <trkpt lat="45.32122" lon="6.9886">
        <ele>1703.4</ele>
      </trkpt>
      <trkpt lat="45.3213" lon="6.98988">
        <ele>1703</ele>
      </trkpt>
      <trkpt lat="45.32134" lon="6.99049">
        <ele>1701.1</ele>
      </trkpt>
      <trkpt lat="45.32136" lon="6.99056">
        <ele>1701.1</ele>
      </trkpt>
      <trkpt lat="45.3215" lon="6.99143">
        <ele>1702.9</ele>
      </trkpt>
      <trkpt lat="45.32147" lon="6.99213">
        <ele>1703.1</ele>
      </trkpt>
      <trkpt lat="45.32194" lon="6.99278">
        <ele>1704</ele>
      </trkpt>
      <trkpt lat="45.32199" lon="6.99281">
        <ele>1704.5</ele>
      </trkpt>
      <trkpt lat="45.32278" lon="6.99314">
        <ele>1706.8</ele>
      </trkpt>
      <trkpt lat="45.32347" lon="6.993">
        <ele>1706.2</ele>
      </trkpt>
      <trkpt lat="45.3241" lon="6.99293">
        <ele>1707.2</ele>
      </trkpt>
      <trkpt lat="45.32478" lon="6.99324">
        <ele>1707.2</ele>
      </trkpt>
      <trkpt lat="45.32515" lon="6.99362">
        <ele>1706.5</ele>
      </trkpt>
      <trkpt lat="45.32548" lon="6.99378">
        <ele>1708.5</ele>
      </trkpt>
      <trkpt lat="45.32609" lon="6.99492">
        <ele>1708.3</ele>
      </trkpt>
      <trkpt lat="45.32634" lon="6.99535">
        <ele>1708.6</ele>
      </trkpt>
      <trkpt lat="45.32639" lon="6.99536">
        <ele>1708.7</ele>
      </trkpt>
      <trkpt lat="45.32695" lon="6.99684">
        <ele>1710.8</ele>
      </trkpt>
      <trkpt lat="45.32756" lon="6.99737">
        <ele>1718.8</ele>
      </trkpt>
      <trkpt lat="45.3278" lon="6.99765">
        <ele>1717.8</ele>
      </trkpt>
      <trkpt lat="45.328" lon="6.99776">
        <ele>1717.1</ele>
      </trkpt>
      <trkpt lat="45.32808" lon="6.99789">
        <ele>1715.7</ele>
      </trkpt>
      <trkpt lat="45.32813" lon="6.99793">
        <ele>1716</ele>
      </trkpt>
      <trkpt lat="45.32833" lon="6.99792">
        <ele>1721.9</ele>
      </trkpt>
      <trkpt lat="45.32878" lon="6.99843">
        <ele>1723.5</ele>
      </trkpt>
      <trkpt lat="45.32921" lon="6.99885">
        <ele>1732.2</ele>
      </trkpt>
      <trkpt lat="45.32915" lon="6.99936">
        <ele>1718.7</ele>
      </trkpt>
      <trkpt lat="45.3292" lon="6.99968">
        <ele>1718.2</ele>
      </trkpt>
      <trkpt lat="45.32922" lon="6.99978">
        <ele>1718.2</ele>
      </trkpt>
      <trkpt lat="45.32933" lon="7.00033">
        <ele>1718.5</ele>
      </trkpt>
      <trkpt lat="45.32928" lon="7.00103">
        <ele>1718.1</ele>
      </trkpt>
      <trkpt lat="45.32932" lon="7.00107">
        <ele>1718.8</ele>
      </trkpt>
      <trkpt lat="45.32932" lon="7.00113">
        <ele>1718.8</ele>
      </trkpt>
      <trkpt lat="45.32952" lon="7.00185">
        <ele>1719.8</ele>
      </trkpt>
      <trkpt lat="45.33005" lon="7.00247">
        <ele>1735.8</ele>
      </trkpt>
      <trkpt lat="45.33023" lon="7.00264">
        <ele>1739.7</ele>
      </trkpt>
      <trkpt lat="45.33025" lon="7.00271">
        <ele>1739.9</ele>
      </trkpt>
      <trkpt lat="45.33048" lon="7.00353">
        <ele>1735.8</ele>
      </trkpt>
      <trkpt lat="45.3306" lon="7.00446">
        <ele>1738.1</ele>
      </trkpt>
      <trkpt lat="45.33062" lon="7.00453">
        <ele>1738.7</ele>
      </trkpt>
      <trkpt lat="45.33065" lon="7.00495">
        <ele>1740.5</ele>
      </trkpt>
      <trkpt lat="45.33064" lon="7.00501">
        <ele>1740.6</ele>
      </trkpt>
      <trkpt lat="45.33066" lon="7.00508">
        <ele>1741.2</ele>
      </trkpt>
      <trkpt lat="45.33089" lon="7.00567">
        <ele>1748.9</ele>
      </trkpt>
      <trkpt lat="45.331" lon="7.00609">
        <ele>1750.8</ele>
      </trkpt>
      <trkpt lat="45.331" lon="7.00616">
        <ele>1750.4</ele>
      </trkpt>
      <trkpt lat="45.33094" lon="7.00654">
        <ele>1746.9</ele>
      </trkpt>
      <trkpt lat="45.33094" lon="7.0066">
        <ele>1746.4</ele>
      </trkpt>
      <trkpt lat="45.33107" lon="7.00719">
        <ele>1748</ele>
      </trkpt>
      <trkpt lat="45.33107" lon="7.00725">
        <ele>1748</ele>
      </trkpt>
      <trkpt lat="45.33111" lon="7.0078">
        <ele>1751.7</ele>
      </trkpt>
      <trkpt lat="45.33143" lon="7.0083">
        <ele>1754.3</ele>
      </trkpt>
      <trkpt lat="45.33147" lon="7.00834">
        <ele>1755.2</ele>
      </trkpt>
      <trkpt lat="45.33152" lon="7.0084">
        <ele>1754.7</ele>
      </trkpt>
      <trkpt lat="45.33212" lon="7.00897">
        <ele>1755.1</ele>
      </trkpt>
      <trkpt lat="45.33254" lon="7.00967">
        <ele>1747.2</ele>
      </trkpt>
      <trkpt lat="45.33259" lon="7.00971">
        <ele>1747.9</ele>
      </trkpt>
      <trkpt lat="45.33279" lon="7.0103">
        <ele>1739</ele>
      </trkpt>
      <trkpt lat="45.33312" lon="7.01087">
        <ele>1743.1</ele>
      </trkpt>
      <trkpt lat="45.33299" lon="7.0115">
        <ele>1744.1</ele>
      </trkpt>
      <trkpt lat="45.33298" lon="7.01156">
        <ele>1745.1</ele>
      </trkpt>
      <trkpt lat="45.33285" lon="7.01248">
        <ele>1749.3</ele>
      </trkpt>
      <trkpt lat="45.3329" lon="7.01251">
        <ele>1749.5</ele>
      </trkpt>
      <trkpt lat="45.33306" lon="7.01358">
        <ele>1747</ele>
      </trkpt>
      <trkpt lat="45.33307" lon="7.01387">
        <ele>1747.1</ele>
      </trkpt>
      <trkpt lat="45.33306" lon="7.01393">
        <ele>1747.1</ele>
      </trkpt>
      <trkpt lat="45.33325" lon="7.01433">
        <ele>1747.3</ele>
      </trkpt>
      <trkpt lat="45.33313" lon="7.01451">
        <ele>1745.2</ele>
      </trkpt>
      <trkpt lat="45.33311" lon="7.01499">
        <ele>1737.7</ele>
      </trkpt>
      <trkpt lat="45.33338" lon="7.01543">
        <ele>1736</ele>
      </trkpt>
      <trkpt lat="45.3334" lon="7.01562">
        <ele>1733.8</ele>
      </trkpt>
      <trkpt lat="45.33409" lon="7.01571">
        <ele>1734.4</ele>
      </trkpt>
      <trkpt lat="45.3345" lon="7.0161">
        <ele>1734.2</ele>
      </trkpt>
      <trkpt lat="45.33457" lon="7.01611">
        <ele>1734.5</ele>
      </trkpt>
      <trkpt lat="45.33513" lon="7.01625">
        <ele>1735.5</ele>
      </trkpt>
      <trkpt lat="45.33555" lon="7.01699">
        <ele>1734.8</ele>
      </trkpt>
      <trkpt lat="45.33598" lon="7.01741">
        <ele>1735.9</ele>
      </trkpt>
      <trkpt lat="45.336" lon="7.01747">
        <ele>1735.9</ele>
      </trkpt>
      <trkpt lat="45.33628" lon="7.01788">
        <ele>1736</ele>
      </trkpt>
      <trkpt lat="45.33695" lon="7.01861">
        <ele>1736</ele>
      </trkpt>
      <trkpt lat="45.33699" lon="7.01864">
        <ele>1736.2</ele>
      </trkpt>
      <trkpt lat="45.3386" lon="7.02057">
        <ele>1738</ele>
      </trkpt>
      <trkpt lat="45.33862" lon="7.02063">
        <ele>1738</ele>
      </trkpt>
      <trkpt lat="45.33866" lon="7.02064">
        <ele>1738.1</ele>
      </trkpt>
      <trkpt lat="45.33919" lon="7.02084">
        <ele>1739.3</ele>
      </trkpt>
      <trkpt lat="45.33965" lon="7.02129">
        <ele>1739.7</ele>
      </trkpt>
      <trkpt lat="45.33999" lon="7.02164">
        <ele>1740.2</ele>
      </trkpt>
      <trkpt lat="45.34039" lon="7.0219">
        <ele>1741.4</ele>
      </trkpt>
      <trkpt lat="45.34039" lon="7.02196">
        <ele>1741</ele>
      </trkpt>
      <trkpt lat="45.34071" lon="7.02241">
        <ele>1741.7</ele>
      </trkpt>
      <trkpt lat="45.34089" lon="7.02242">
        <ele>1742.8</ele>
      </trkpt>
      <trkpt lat="45.34154" lon="7.02347">
        <ele>1744.4</ele>
      </trkpt>
      <trkpt lat="45.34154" lon="7.02353">
        <ele>1744.3</ele>
      </trkpt>
      <trkpt lat="45.34196" lon="7.02414">
        <ele>1743.6</ele>
      </trkpt>
      <trkpt lat="45.34225" lon="7.02417">
        <ele>1748</ele>
      </trkpt>
      <trkpt lat="45.34275" lon="7.02405">
        <ele>1750.2</ele>
      </trkpt>
      <trkpt lat="45.34299" lon="7.02426">
        <ele>1748.7</ele>
      </trkpt>
      <trkpt lat="45.34304" lon="7.0243">
        <ele>1748.5</ele>
      </trkpt>
      <trkpt lat="45.34353" lon="7.02437">
        <ele>1749.2</ele>
      </trkpt>
      <trkpt lat="45.34357" lon="7.02437">
        <ele>1749.2</ele>
      </trkpt>
      <trkpt lat="45.34399" lon="7.02412">
        <ele>1746.4</ele>
      </trkpt>
      <trkpt lat="45.34428" lon="7.02418">
        <ele>1747.2</ele>
      </trkpt>
      <trkpt lat="45.34433" lon="7.02418">
        <ele>1747.6</ele>
      </trkpt>
      <trkpt lat="45.34437" lon="7.02419">
        <ele>1748</ele>
      </trkpt>
      <trkpt lat="45.34442" lon="7.02419">
        <ele>1748.5</ele>
      </trkpt>
      <trkpt lat="45.3447" lon="7.02437">
        <ele>1749.1</ele>
      </trkpt>
      <trkpt lat="45.34492" lon="7.025">
        <ele>1748.6</ele>
      </trkpt>
      <trkpt lat="45.34497" lon="7.02504">
        <ele>1749.3</ele>
      </trkpt>
      <trkpt lat="45.34531" lon="7.02548">
        <ele>1750.1</ele>
      </trkpt>
      <trkpt lat="45.34535" lon="7.02552">
        <ele>1750.3</ele>
      </trkpt>
      <trkpt lat="45.34596" lon="7.02668">
        <ele>1753.5</ele>
      </trkpt>
      <trkpt lat="45.346" lon="7.02675">
        <ele>1752.8</ele>
      </trkpt>
      <trkpt lat="45.34604" lon="7.02679">
        <ele>1752.5</ele>
      </trkpt>
      <trkpt lat="45.34624" lon="7.02696">
        <ele>1748.5</ele>
      </trkpt>
      <trkpt lat="45.34646" lon="7.02701">
        <ele>1749</ele>
      </trkpt>
      <trkpt lat="45.34661" lon="7.02709">
        <ele>1750.3</ele>
      </trkpt>
      <trkpt lat="45.34666" lon="7.02713">
        <ele>1750.3</ele>
      </trkpt>
      <trkpt lat="45.3471" lon="7.02732">
        <ele>1749.4</ele>
      </trkpt>
      <trkpt lat="45.34714" lon="7.02736">
        <ele>1749.4</ele>
      </trkpt>
      <trkpt lat="45.34729" lon="7.02763">
        <ele>1749.2</ele>
      </trkpt>
      <trkpt lat="45.34733" lon="7.02766">
        <ele>1749.4</ele>
      </trkpt>
      <trkpt lat="45.34788" lon="7.028">
        <ele>1751.8</ele>
      </trkpt>
      <trkpt lat="45.34847" lon="7.02802">
        <ele>1755.9</ele>
      </trkpt>
      <trkpt lat="45.34883" lon="7.02808">
        <ele>1758.9</ele>
      </trkpt>
      <trkpt lat="45.34887" lon="7.02808">
        <ele>1759.3</ele>
      </trkpt>
      <trkpt lat="45.34937" lon="7.02787">
        <ele>1769.7</ele>
      </trkpt>
      <trkpt lat="45.34998" lon="7.02802">
        <ele>1764.8</ele>
      </trkpt>
      <trkpt lat="45.35055" lon="7.02778">
        <ele>1761.1</ele>
      </trkpt>
      <trkpt lat="45.35175" lon="7.02807">
        <ele>1754.2</ele>
      </trkpt>
      <trkpt lat="45.3518" lon="7.02811">
        <ele>1754.2</ele>
      </trkpt>
      <trkpt lat="45.35265" lon="7.02827">
        <ele>1756.6</ele>
      </trkpt>
      <trkpt lat="45.35303" lon="7.02834">
        <ele>1754.9</ele>
      </trkpt>
      <trkpt lat="45.35307" lon="7.02834">
        <ele>1755</ele>
      </trkpt>
      <trkpt lat="45.35339" lon="7.02818">
        <ele>1757.1</ele>
      </trkpt>
      <trkpt lat="45.35405" lon="7.02865">
        <ele>1756.9</ele>
      </trkpt>
      <trkpt lat="45.35465" lon="7.02892">
        <ele>1757.6</ele>
      </trkpt>
      <trkpt lat="45.35518" lon="7.02903">
        <ele>1758</ele>
      </trkpt>
      <trkpt lat="45.35614" lon="7.02879">
        <ele>1761.7</ele>
      </trkpt>
      <trkpt lat="45.3569" lon="7.02883">
        <ele>1761.4</ele>
      </trkpt>
      <trkpt lat="45.35724" lon="7.02898">
        <ele>1760.7</ele>
      </trkpt>
      <trkpt lat="45.35726" lon="7.02905">
        <ele>1760.5</ele>
      </trkpt>
      <trkpt lat="45.35761" lon="7.02975">
        <ele>1760</ele>
      </trkpt>
      <trkpt lat="45.35803" lon="7.02985">
        <ele>1761</ele>
      </trkpt>
      <trkpt lat="45.35839" lon="7.03036">
        <ele>1760.7</ele>
      </trkpt>
      <trkpt lat="45.35891" lon="7.0305">
        <ele>1762</ele>
      </trkpt>
      <trkpt lat="45.35959" lon="7.03091">
        <ele>1763.3</ele>
      </trkpt>
      <trkpt lat="45.36026" lon="7.03154">
        <ele>1763</ele>
      </trkpt>
      <trkpt lat="45.36122" lon="7.03232">
        <ele>1764.4</ele>
      </trkpt>
      <trkpt lat="45.36195" lon="7.03309">
        <ele>1766</ele>
      </trkpt>
      <trkpt lat="45.36273" lon="7.03395">
        <ele>1766.6</ele>
      </trkpt>
      <trkpt lat="45.36297" lon="7.03404">
        <ele>1768.2</ele>
      </trkpt>
      <trkpt lat="45.36301" lon="7.03407">
        <ele>1768.3</ele>
      </trkpt>
      <trkpt lat="45.36338" lon="7.03443">
        <ele>1768.5</ele>
      </trkpt>
      <trkpt lat="45.36362" lon="7.0347">
        <ele>1769.1</ele>
      </trkpt>
      <trkpt lat="45.36404" lon="7.03483">
        <ele>1769.5</ele>
      </trkpt>
      <trkpt lat="45.36445" lon="7.03535">
        <ele>1771</ele>
      </trkpt>
      <trkpt lat="45.36486" lon="7.03637">
        <ele>1771.5</ele>
      </trkpt>
      <trkpt lat="45.36534" lon="7.03715">
        <ele>1771.7</ele>
      </trkpt>
      <trkpt lat="45.36562" lon="7.03743">
        <ele>1772.7</ele>
      </trkpt>
      <trkpt lat="45.36618" lon="7.03757">
        <ele>1775.2</ele>
      </trkpt>
      <trkpt lat="45.36622" lon="7.03758">
        <ele>1775.5</ele>
      </trkpt>
      <trkpt lat="45.36644" lon="7.03772">
        <ele>1776.4</ele>
      </trkpt>
      <trkpt lat="45.36646" lon="7.03779">
        <ele>1776.2</ele>
      </trkpt>
      <trkpt lat="45.36683" lon="7.03804">
        <ele>1776.7</ele>
      </trkpt>
      <trkpt lat="45.36765" lon="7.03846">
        <ele>1776.5</ele>
      </trkpt>
      <trkpt lat="45.36772" lon="7.03847">
        <ele>1776.5</ele>
      </trkpt>
      <trkpt lat="45.36776" lon="7.0385">
        <ele>1776.4</ele>
      </trkpt>
      <trkpt lat="45.36838" lon="7.03884">
        <ele>1776</ele>
      </trkpt>
      <trkpt lat="45.36892" lon="7.03931">
        <ele>1777.9</ele>
      </trkpt>
      <trkpt lat="45.36897" lon="7.03934">
        <ele>1778.2</ele>
      </trkpt>
      <trkpt lat="45.36916" lon="7.03965">
        <ele>1779.2</ele>
      </trkpt>
      <trkpt lat="45.36918" lon="7.03971">
        <ele>1779.1</ele>
      </trkpt>
      <trkpt lat="45.36944" lon="7.03996">
        <ele>1778.3</ele>
      </trkpt>
      <trkpt lat="45.36972" lon="7.04008">
        <ele>1778.7</ele>
      </trkpt>
      <trkpt lat="45.37001" lon="7.04081">
        <ele>1778.2</ele>
      </trkpt>
      <trkpt lat="45.37" lon="7.04087">
        <ele>1778.1</ele>
      </trkpt>
      <trkpt lat="45.37" lon="7.04096">
        <ele>1778</ele>
      </trkpt>
      <trkpt lat="45.37034" lon="7.04211">
        <ele>1779.1</ele>
      </trkpt>
      <trkpt lat="45.37038" lon="7.04215">
        <ele>1779.1</ele>
      </trkpt>
      <trkpt lat="45.37053" lon="7.04286">
        <ele>1779.4</ele>
      </trkpt>
      <trkpt lat="45.37053" lon="7.04293">
        <ele>1779.6</ele>
      </trkpt>
      <trkpt lat="45.37054" lon="7.04322">
        <ele>1780</ele>
      </trkpt>
      <trkpt lat="45.37128" lon="7.04485">
        <ele>1783.4</ele>
      </trkpt>
      <trkpt lat="45.37171" lon="7.04693">
        <ele>1789.5</ele>
      </trkpt>
      <trkpt lat="45.37175" lon="7.04693">
        <ele>1790</ele>
      </trkpt>
      <trkpt lat="45.37193" lon="7.048">
        <ele>1789</ele>
      </trkpt>
      <trkpt lat="45.37215" lon="7.04821">
        <ele>1790.5</ele>
      </trkpt>
      <trkpt lat="45.37236" lon="7.04909">
        <ele>1792.4</ele>
      </trkpt>
      <trkpt lat="45.3726" lon="7.04972">
        <ele>1792.8</ele>
      </trkpt>
      <trkpt lat="45.37304" lon="7.05053">
        <ele>1796.1</ele>
      </trkpt>
      <trkpt lat="45.37364" lon="7.05195">
        <ele>1802.5</ele>
      </trkpt>
      <trkpt lat="45.37363" lon="7.05275">
        <ele>1807</ele>
      </trkpt>
      <trkpt lat="45.37384" lon="7.05299">
        <ele>1809.1</ele>
      </trkpt>
      <trkpt lat="45.37413" lon="7.0541">
        <ele>1816</ele>
      </trkpt>
      <trkpt lat="45.3745" lon="7.05509">
        <ele>1822.2</ele>
      </trkpt>
      <trkpt lat="45.37492" lon="7.05622">
        <ele>1826.5</ele>
      </trkpt>
      <trkpt lat="45.37498" lon="7.05689">
        <ele>1827.4</ele>
      </trkpt>
      <trkpt lat="45.375" lon="7.05696">
        <ele>1828.1</ele>
      </trkpt>
      <trkpt lat="45.37502" lon="7.0576">
        <ele>1828.8</ele>
      </trkpt>
      <trkpt lat="45.37509" lon="7.05808">
        <ele>1832.1</ele>
      </trkpt>
      <trkpt lat="45.37505" lon="7.0591">
        <ele>1830.5</ele>
      </trkpt>
      <trkpt lat="45.37494" lon="7.06005">
        <ele>1829.2</ele>
      </trkpt>
      <trkpt lat="45.37494" lon="7.06012">
        <ele>1829.5</ele>
      </trkpt>
      <trkpt lat="45.37474" lon="7.06096">
        <ele>1827.9</ele>
      </trkpt>
      <trkpt lat="45.37474" lon="7.06103">
        <ele>1828.5</ele>
      </trkpt>
      <trkpt lat="45.37474" lon="7.06109">
        <ele>1829.2</ele>
      </trkpt>
      <trkpt lat="45.37476" lon="7.06167">
        <ele>1833.8</ele>
      </trkpt>
      <trkpt lat="45.37436" lon="7.06247">
        <ele>1829.7</ele>
      </trkpt>
      <trkpt lat="45.37436" lon="7.06253">
        <ele>1830</ele>
      </trkpt>
      <trkpt lat="45.37401" lon="7.06346">
        <ele>1831.4</ele>
      </trkpt>
      <trkpt lat="45.37402" lon="7.06356">
        <ele>1832.5</ele>
      </trkpt>
      <trkpt lat="45.37404" lon="7.06413">
        <ele>1838</ele>
      </trkpt>
      <trkpt lat="45.37404" lon="7.0642">
        <ele>1838.4</ele>
      </trkpt>
      <trkpt lat="45.37417" lon="7.06446">
        <ele>1841.3</ele>
      </trkpt>
      <trkpt lat="45.37403" lon="7.06499">
        <ele>1846</ele>
      </trkpt>
      <trkpt lat="45.374" lon="7.06566">
        <ele>1851.7</ele>
      </trkpt>
      <trkpt lat="45.374" lon="7.06573">
        <ele>1851.7</ele>
      </trkpt>
      <trkpt lat="45.37397" lon="7.06579">
        <ele>1851.2</ele>
      </trkpt>
      <trkpt lat="45.37389" lon="7.06607">
        <ele>1850.8</ele>
      </trkpt>
      <trkpt lat="45.37389" lon="7.06613">
        <ele>1851.2</ele>
      </trkpt>
      <trkpt lat="45.3739" lon="7.06649">
        <ele>1854.1</ele>
      </trkpt>
      <trkpt lat="45.37374" lon="7.06714">
        <ele>1853</ele>
      </trkpt>
      <trkpt lat="45.37371" lon="7.0672">
        <ele>1852.7</ele>
      </trkpt>
      <trkpt lat="45.37369" lon="7.06771">
        <ele>1854.4</ele>
      </trkpt>
      <trkpt lat="45.37369" lon="7.06778">
        <ele>1854.1</ele>
      </trkpt>
      <trkpt lat="45.37408" lon="7.06867">
        <ele>1859.8</ele>
      </trkpt>
      <trkpt lat="45.37433" lon="7.06953">
        <ele>1859.7</ele>
      </trkpt>
      <trkpt lat="45.37426" lon="7.06971">
        <ele>1857.6</ele>
      </trkpt>
      <trkpt lat="45.37433" lon="7.07004">
        <ele>1859.4</ele>
      </trkpt>
      <trkpt lat="45.37438" lon="7.07011">
        <ele>1859.9</ele>
      </trkpt>
      <trkpt lat="45.37465" lon="7.07173">
        <ele>1864.5</ele>
      </trkpt>
      <trkpt lat="45.37471" lon="7.07279">
        <ele>1866.9</ele>
      </trkpt>
      <trkpt lat="45.37511" lon="7.07349">
        <ele>1873</ele>
      </trkpt>
      <trkpt lat="45.37513" lon="7.07366">
        <ele>1872.6</ele>
      </trkpt>
      <trkpt lat="45.37562" lon="7.07469">
        <ele>1878</ele>
      </trkpt>
      <trkpt lat="45.37567" lon="7.07472">
        <ele>1879.6</ele>
      </trkpt>
      <trkpt lat="45.37605" lon="7.07533">
        <ele>1889.2</ele>
      </trkpt>
      <trkpt lat="45.3764" lon="7.07607">
        <ele>1899.5</ele>
      </trkpt>
      <trkpt lat="45.37644" lon="7.0761">
        <ele>1901.5</ele>
      </trkpt>
      <trkpt lat="45.37661" lon="7.07647">
        <ele>1909.1</ele>
      </trkpt>
      <trkpt lat="45.37663" lon="7.07689">
        <ele>1913.8</ele>
      </trkpt>
      <trkpt lat="45.37663" lon="7.07695">
        <ele>1914.4</ele>
      </trkpt>
      <trkpt lat="45.37663" lon="7.07701">
        <ele>1915</ele>
      </trkpt>
      <trkpt lat="45.37674" lon="7.07753">
        <ele>1922</ele>
      </trkpt>
      <trkpt lat="45.37674" lon="7.0776">
        <ele>1921.9</ele>
      </trkpt>
      <trkpt lat="45.37676" lon="7.07766">
        <ele>1922.7</ele>
      </trkpt>
      <trkpt lat="45.37678" lon="7.07773">
        <ele>1923.4</ele>
      </trkpt>
      <trkpt lat="45.37687" lon="7.07815">
        <ele>1924.9</ele>
      </trkpt>
      <trkpt lat="45.37712" lon="7.07878">
        <ele>1932.5</ele>
      </trkpt>
      <trkpt lat="45.37711" lon="7.07948">
        <ele>1934.3</ele>
      </trkpt>
      <trkpt lat="45.37713" lon="7.07955">
        <ele>1934.4</ele>
      </trkpt>
      <trkpt lat="45.37735" lon="7.08008">
        <ele>1941.8</ele>
      </trkpt>
      <trkpt lat="45.3774" lon="7.08012">
        <ele>1943</ele>
      </trkpt>
      <trkpt lat="45.37753" lon="7.0807">
        <ele>1949.9</ele>
      </trkpt>
      <trkpt lat="45.37764" lon="7.08177">
        <ele>1963.3</ele>
      </trkpt>
      <trkpt lat="45.37771" lon="7.08235">
        <ele>1967.3</ele>
      </trkpt>
      <trkpt lat="45.37795" lon="7.08298">
        <ele>1971.2</ele>
      </trkpt>
      <trkpt lat="45.37832" lon="7.08323">
        <ele>1979.2</ele>
      </trkpt>
      <trkpt lat="45.3787" lon="7.08336">
        <ele>1984.6</ele>
      </trkpt>
      <trkpt lat="45.37906" lon="7.08438">
        <ele>1985.9</ele>
      </trkpt>
      <trkpt lat="45.37923" lon="7.08475">
        <ele>1992</ele>
      </trkpt>
      <trkpt lat="45.37915" lon="7.08497">
        <ele>1992.3</ele>
      </trkpt>
      <trkpt lat="45.37939" lon="7.08508">
        <ele>1998.9</ele>
      </trkpt>
      <trkpt lat="45.37932" lon="7.08533">
        <ele>2000.9</ele>
      </trkpt>
      <trkpt lat="45.37959" lon="7.08568">
        <ele>2012.6</ele>
      </trkpt>
      <trkpt lat="45.37959" lon="7.08574">
        <ele>2013.6</ele>
      </trkpt>
      <trkpt lat="45.37949" lon="7.08599">
        <ele>2015</ele>
      </trkpt>
      <trkpt lat="45.37951" lon="7.08605">
        <ele>2015.5</ele>
      </trkpt>
      <trkpt lat="45.37954" lon="7.08641">
        <ele>2018.1</ele>
      </trkpt>
      <trkpt lat="45.37977" lon="7.08684">
        <ele>2020.7</ele>
      </trkpt>
      <trkpt lat="45.38016" lon="7.08726">
        <ele>2031.1</ele>
      </trkpt>
      <trkpt lat="45.38043" lon="7.08779">
        <ele>2034.5</ele>
      </trkpt>
      <trkpt lat="45.38048" lon="7.08828">
        <ele>2032.2</ele>
      </trkpt>
      <trkpt lat="45.38033" lon="7.08862">
        <ele>2034.4</ele>
      </trkpt>
      <trkpt lat="45.38033" lon="7.08862">
        <ele>2034.4</ele>
      </trkpt>
      <trkpt lat="45.38035" lon="7.08862">
        <ele>2034.5</ele>
      </trkpt>
    </trkseg>
  </trk>
</gpx>