<?xml version="1.0" encoding="utf-8"?><gpx creator="Garmin Desktop App" version="1.1" xsi:schemaLocation="http://www.topografix.com/GPX/1/1 http://www.topografix.com/GPX/1/1/gpx.xsd http://www.garmin.com/xmlschemas/WaypointExtension/v1 http://www8.garmin.com/xmlschemas/WaypointExtensionv1.xsd http://www.garmin.com/xmlschemas/TrackPointExtension/v1 http://www.garmin.com/xmlschemas/TrackPointExtensionv1.xsd http://www.garmin.com/xmlschemas/GpxExtensions/v3 http://www8.garmin.com/xmlschemas/GpxExtensionsv3.xsd http://www.garmin.com/xmlschemas/ActivityExtension/v1 http://www8.garmin.com/xmlschemas/ActivityExtensionv1.xsd http://www.garmin.com/xmlschemas/AdventuresExtensions/v1 http://www8.garmin.com/xmlschemas/AdventuresExtensionv1.xsd http://www.garmin.com/xmlschemas/PressureExtension/v1 http://www.garmin.com/xmlschemas/PressureExtensionv1.xsd http://www.garmin.com/xmlschemas/TripExtensions/v1 http://www.garmin.com/xmlschemas/TripExtensionsv1.xsd http://www.garmin.com/xmlschemas/TripMetaDataExtensions/v1 http://www.garmin.com/xmlschemas/TripMetaDataExtensionsv1.xsd http://www.garmin.com/xmlschemas/ViaPointTransportationModeExtensions/v1 http://www.garmin.com/xmlschemas/ViaPointTransportationModeExtensionsv1.xsd http://www.garmin.com/xmlschemas/CreationTimeExtension/v1 http://www.garmin.com/xmlschemas/CreationTimeExtensionsv1.xsd http://www.garmin.com/xmlschemas/AccelerationExtension/v1 http://www.garmin.com/xmlschemas/AccelerationExtensionv1.xsd http://www.garmin.com/xmlschemas/PowerExtension/v1 http://www.garmin.com/xmlschemas/PowerExtensionv1.xsd http://www.garmin.com/xmlschemas/VideoExtension/v1 http://www.garmin.com/xmlschemas/VideoExtensionv1.xsd" xmlns="http://www.topografix.com/GPX/1/1" xmlns:xsi="http://www.w3.org/2001/XMLSchema-instance" xmlns:wptx1="http://www.garmin.com/xmlschemas/WaypointExtension/v1" xmlns:gpxtrx="http://www.garmin.com/xmlschemas/GpxExtensions/v3" xmlns:gpxtpx="http://www.garmin.com/xmlschemas/TrackPointExtension/v1" xmlns:gpxx="http://www.garmin.com/xmlschemas/GpxExtensions/v3" xmlns:trp="http://www.garmin.com/xmlschemas/TripExtensions/v1" xmlns:adv="http://www.garmin.com/xmlschemas/AdventuresExtensions/v1" xmlns:prs="http://www.garmin.com/xmlschemas/PressureExtension/v1" xmlns:tmd="http://www.garmin.com/xmlschemas/TripMetaDataExtensions/v1" xmlns:vptm="http://www.garmin.com/xmlschemas/ViaPointTransportationModeExtensions/v1" xmlns:ctx="http://www.garmin.com/xmlschemas/CreationTimeExtension/v1" xmlns:gpxacc="http://www.garmin.com/xmlschemas/AccelerationExtension/v1" xmlns:gpxpx="http://www.garmin.com/xmlschemas/PowerExtension/v1" xmlns:vidx1="http://www.garmin.com/xmlschemas/VideoExtension/v1">

  <metadata>
    <link href="http://www.garmin.com">
      <text>Garmin International</text>
    </link>
    <time>2018-04-18T11:06:16Z</time>
    <bounds maxlat="46.375304013490677" maxlon="6.562016978859901" minlat="46.328082969412208" minlon="6.477181976661086" />
  </metadata>

  <trk>
    <name>Part 10a - FR Thonon-les-Bains to Reyvroz (off route)</name>
    <desc>Randonnée avec le GR5 à travers le Haute-Savoie de Thonon-les-Bains à Les Houches. Gîtes d'étapes, Chambres d'hôtes, Hôtels, Camping, Refuges, Auberges.</desc>
    <extensions>
      <gpxx:TrackExtension>
        <gpxx:DisplayColor>Red</gpxx:DisplayColor>
      </gpxx:TrackExtension>
    </extensions>
    <trkseg>
      <trkpt lat="46.375049035996199" lon="6.477181976661086">
        <ele>377</ele>
        <time>2017-03-27T16:25:49Z</time>
      </trkpt>
      <trkpt lat="46.375115001574159" lon="6.478195013478398">
        <ele>382</ele>
        <time>2017-03-27T16:26:09Z</time>
      </trkpt>
      <trkpt lat="46.375304013490677" lon="6.478791972622275">
        <ele>385</ele>
        <time>2017-03-27T16:26:29Z</time>
      </trkpt>
      <trkpt lat="46.37447303161025" lon="6.479462021961808">
        <ele>409</ele>
        <time>2017-03-27T16:26:49Z</time>
      </trkpt>
      <trkpt lat="46.374383009970188" lon="6.479810038581491">
        <ele>412</ele>
        <time>2017-03-27T16:27:09Z</time>
      </trkpt>
      <trkpt lat="46.374153010547161" lon="6.479417011141777">
        <ele>422</ele>
        <time>2017-03-27T16:27:29Z</time>
      </trkpt>
      <trkpt lat="46.373729975894094" lon="6.479163961485028">
        <ele>422</ele>
        <time>2017-03-27T16:27:49Z</time>
      </trkpt>
      <trkpt lat="46.373428981751204" lon="6.480037020519376">
        <ele>431</ele>
        <time>2017-03-27T16:28:09Z</time>
      </trkpt>
      <trkpt lat="46.373197976499796" lon="6.480130981653929">
        <ele>432</ele>
        <time>2017-03-27T16:28:29Z</time>
      </trkpt>
      <trkpt lat="46.373077025637031" lon="6.480448991060257">
        <ele>432</ele>
        <time>2017-03-27T16:28:49Z</time>
      </trkpt>
      <trkpt lat="46.3725829962641" lon="6.480601960793138">
        <ele>433</ele>
        <time>2017-03-27T16:29:09Z</time>
      </trkpt>
      <trkpt lat="46.371843963861465" lon="6.48062601685524">
        <ele>435</ele>
        <time>2017-03-27T16:29:29Z</time>
      </trkpt>
      <trkpt lat="46.371862990781665" lon="6.481264969334006">
        <ele>434</ele>
        <time>2017-03-27T16:29:49Z</time>
      </trkpt>
      <trkpt lat="46.371509023010731" lon="6.481470996513963">
        <ele>435</ele>
        <time>2017-03-27T16:30:09Z</time>
      </trkpt>
      <trkpt lat="46.371096968650818" lon="6.481741983443499">
        <ele>435</ele>
        <time>2017-03-27T16:30:29Z</time>
      </trkpt>
      <trkpt lat="46.370571004226804" lon="6.482060998678207">
        <ele>436</ele>
        <time>2017-03-27T16:30:49Z</time>
      </trkpt>
      <trkpt lat="46.369483033195138" lon="6.482380013912916">
        <ele>437</ele>
        <time>2017-03-27T16:31:09Z</time>
      </trkpt>
      <trkpt lat="46.368676023557782" lon="6.483106976374984">
        <ele>444</ele>
        <time>2017-03-27T16:31:29Z</time>
      </trkpt>
      <trkpt lat="46.368349967524409" lon="6.482954006642103">
        <ele>444</ele>
        <time>2017-03-27T16:31:49Z</time>
      </trkpt>
      <trkpt lat="46.367594003677368" lon="6.483046961948276">
        <ele>450</ele>
        <time>2017-03-27T16:32:09Z</time>
      </trkpt>
      <trkpt lat="46.367163006216288" lon="6.482872031629086">
        <ele>450</ele>
        <time>2017-03-27T16:32:29Z</time>
      </trkpt>
      <trkpt lat="46.367117995396256" lon="6.482589980587363">
        <ele>450</ele>
        <time>2017-03-27T16:32:49Z</time>
      </trkpt>
      <trkpt lat="46.366776013746858" lon="6.481523970142007">
        <ele>447</ele>
        <time>2017-03-27T16:33:09Z</time>
      </trkpt>
      <trkpt lat="46.365408003330231" lon="6.481296988204122">
        <ele>447</ele>
        <time>2017-03-27T16:33:29Z</time>
      </trkpt>
      <trkpt lat="46.364694032818079" lon="6.481361025944352">
        <ele>449</ele>
        <time>2017-03-27T16:33:49Z</time>
      </trkpt>
      <trkpt lat="46.364346016198397" lon="6.481189029291272">
        <ele>450</ele>
        <time>2017-03-27T16:34:09Z</time>
      </trkpt>
      <trkpt lat="46.36418198235333" lon="6.481285002082586">
        <ele>450</ele>
        <time>2017-03-27T16:34:29Z</time>
      </trkpt>
      <trkpt lat="46.36364696547389" lon="6.481156004592776">
        <ele>453</ele>
        <time>2017-03-27T16:34:49Z</time>
      </trkpt>
      <trkpt lat="46.363054029643536" lon="6.481663025915623">
        <ele>457</ele>
        <time>2017-03-27T16:35:09Z</time>
      </trkpt>
      <trkpt lat="46.36276300996542" lon="6.482162000611424">
        <ele>457</ele>
        <time>2017-03-27T16:35:29Z</time>
      </trkpt>
      <trkpt lat="46.362306028604507" lon="6.482481015846133">
        <ele>455</ele>
        <time>2017-03-27T16:35:49Z</time>
      </trkpt>
      <trkpt lat="46.362167978659272" lon="6.482499958947301">
        <ele>455</ele>
        <time>2017-03-27T16:36:09Z</time>
      </trkpt>
      <trkpt lat="46.361406985670328" lon="6.483992021530867">
        <ele>462</ele>
        <time>2017-03-27T16:36:29Z</time>
      </trkpt>
      <trkpt lat="46.359892040491104" lon="6.484786961227655">
        <ele>476</ele>
        <time>2017-03-27T16:36:49Z</time>
      </trkpt>
      <trkpt lat="46.359445033594966" lon="6.485484000295401">
        <ele>479</ele>
        <time>2017-03-27T16:37:09Z</time>
      </trkpt>
      <trkpt lat="46.358566023409367" lon="6.486443979665637">
        <ele>485</ele>
        <time>2017-03-27T16:37:29Z</time>
      </trkpt>
      <trkpt lat="46.357460031285882" lon="6.48773998953402">
        <ele>485</ele>
        <time>2017-03-27T16:37:49Z</time>
      </trkpt>
      <trkpt lat="46.35726498439908" lon="6.488102003931999">
        <ele>486</ele>
        <time>2017-03-27T16:38:09Z</time>
      </trkpt>
      <trkpt lat="46.35649099946022" lon="6.488797031342983">
        <ele>492</ele>
        <time>2017-03-27T16:38:29Z</time>
      </trkpt>
      <trkpt lat="46.355654988437891" lon="6.489805039018393">
        <ele>503</ele>
        <time>2017-03-27T16:38:49Z</time>
      </trkpt>
      <trkpt lat="46.355471005663276" lon="6.490177027881146">
        <ele>505</ele>
        <time>2017-03-27T16:39:09Z</time>
      </trkpt>
      <trkpt lat="46.355494977906346" lon="6.491409000009298">
        <ele>506</ele>
        <time>2017-03-27T16:39:29Z</time>
      </trkpt>
      <trkpt lat="46.355280987918377" lon="6.491866987198591">
        <ele>508</ele>
        <time>2017-03-27T16:39:49Z</time>
      </trkpt>
      <trkpt lat="46.354962978512049" lon="6.492101009935141">
        <ele>513</ele>
        <time>2017-03-27T16:40:09Z</time>
      </trkpt>
      <trkpt lat="46.354346992447972" lon="6.492183990776539">
        <ele>516</ele>
        <time>2017-03-27T16:40:29Z</time>
      </trkpt>
      <trkpt lat="46.353857992216945" lon="6.492289016023278">
        <ele>521</ele>
        <time>2017-03-27T16:40:49Z</time>
      </trkpt>
      <trkpt lat="46.353538976982236" lon="6.492543993517757">
        <ele>520</ele>
        <time>2017-03-27T16:41:09Z</time>
      </trkpt>
      <trkpt lat="46.353923035785556" lon="6.492451038211584">
        <ele>520</ele>
        <time>2017-03-27T16:41:29Z</time>
      </trkpt>
      <trkpt lat="46.354325031861663" lon="6.492492025718093">
        <ele>517</ele>
        <time>2017-03-27T16:41:49Z</time>
      </trkpt>
      <trkpt lat="46.355066997930408" lon="6.493046991527081">
        <ele>510</ele>
        <time>2017-03-27T16:42:09Z</time>
      </trkpt>
      <trkpt lat="46.356009962037206" lon="6.493240026757121">
        <ele>506</ele>
        <time>2017-03-27T16:42:29Z</time>
      </trkpt>
      <trkpt lat="46.356849996373057" lon="6.493800021708012">
        <ele>498</ele>
        <time>2017-03-27T16:42:49Z</time>
      </trkpt>
      <trkpt lat="46.356917973607779" lon="6.49416203610599">
        <ele>499</ele>
        <time>2017-03-27T16:43:09Z</time>
      </trkpt>
      <trkpt lat="46.356777995824814" lon="6.49504498578608">
        <ele>516</ele>
        <time>2017-03-27T16:43:29Z</time>
      </trkpt>
      <trkpt lat="46.356800040230155" lon="6.495541026815772">
        <ele>521</ele>
        <time>2017-03-27T16:43:49Z</time>
      </trkpt>
      <trkpt lat="46.357342014089227" lon="6.497059995308518">
        <ele>543</ele>
        <time>2017-03-27T16:44:09Z</time>
      </trkpt>
      <trkpt lat="46.357322987169027" lon="6.497457968071103">
        <ele>545</ele>
        <time>2017-03-27T16:44:29Z</time>
      </trkpt>
      <trkpt lat="46.357532031834126" lon="6.497798021882772">
        <ele>543</ele>
        <time>2017-03-27T16:44:49Z</time>
      </trkpt>
      <trkpt lat="46.357389036566019" lon="6.498376037925482">
        <ele>556</ele>
        <time>2017-03-27T16:45:09Z</time>
      </trkpt>
      <trkpt lat="46.357346959412098" lon="6.49882597848773">
        <ele>560</ele>
        <time>2017-03-27T16:45:29Z</time>
      </trkpt>
      <trkpt lat="46.357223996892571" lon="6.49931900203228">
        <ele>564</ele>
        <time>2017-03-27T16:45:49Z</time>
      </trkpt>
      <trkpt lat="46.357268001884222" lon="6.499798027798533">
        <ele>566</ele>
        <time>2017-03-27T16:46:09Z</time>
      </trkpt>
      <trkpt lat="46.357216034084558" lon="6.500245034694672">
        <ele>569</ele>
        <time>2017-03-27T16:46:29Z</time>
      </trkpt>
      <trkpt lat="46.356243984773755" lon="6.50090703740716">
        <ele>582</ele>
        <time>2017-03-27T16:46:49Z</time>
      </trkpt>
      <trkpt lat="46.356418998911977" lon="6.501094959676266">
        <ele>581</ele>
        <time>2017-03-27T16:47:09Z</time>
      </trkpt>
      <trkpt lat="46.356594013050199" lon="6.501391008496285">
        <ele>583</ele>
        <time>2017-03-27T16:47:29Z</time>
      </trkpt>
      <trkpt lat="46.35578197427094" lon="6.501499973237515">
        <ele>599</ele>
        <time>2017-03-27T16:47:49Z</time>
      </trkpt>
      <trkpt lat="46.356049021705985" lon="6.502019986510277">
        <ele>601</ele>
        <time>2017-03-27T16:48:09Z</time>
      </trkpt>
      <trkpt lat="46.356049021705985" lon="6.502019986510277">
        <ele>601</ele>
        <time>2017-03-27T16:48:29Z</time>
      </trkpt>
      <trkpt lat="46.355677032843232" lon="6.502145966514945">
        <ele>609</ele>
        <time>2017-03-27T16:48:49Z</time>
      </trkpt>
      <trkpt lat="46.356062013655901" lon="6.502982983365655">
        <ele>611</ele>
        <time>2017-03-27T16:49:09Z</time>
      </trkpt>
      <trkpt lat="46.356431990861893" lon="6.503669964149594">
        <ele>611</ele>
        <time>2017-03-27T16:49:29Z</time>
      </trkpt>
      <trkpt lat="46.35644699446857" lon="6.504142032936215">
        <ele>611</ele>
        <time>2017-03-27T16:49:49Z</time>
      </trkpt>
      <trkpt lat="46.355957994237542" lon="6.506889034062624">
        <ele>601</ele>
        <time>2017-03-27T16:50:09Z</time>
      </trkpt>
      <trkpt lat="46.356032006442547" lon="6.509162960574031">
        <ele>599</ele>
        <time>2017-03-27T16:50:29Z</time>
      </trkpt>
      <trkpt lat="46.356698032468557" lon="6.509979022666812">
        <ele>605</ele>
        <time>2017-03-27T16:50:49Z</time>
      </trkpt>
      <trkpt lat="46.356979999691248" lon="6.510536000132561">
        <ele>604</ele>
        <time>2017-03-27T16:51:09Z</time>
      </trkpt>
      <trkpt lat="46.357202036306262" lon="6.51148097589612">
        <ele>608</ele>
        <time>2017-03-27T16:51:29Z</time>
      </trkpt>
      <trkpt lat="46.35754301212728" lon="6.51186696253717">
        <ele>610</ele>
        <time>2017-03-27T16:51:49Z</time>
      </trkpt>
      <trkpt lat="46.35782397352159" lon="6.51173796504736">
        <ele>610</ele>
        <time>2017-03-27T16:52:09Z</time>
      </trkpt>
      <trkpt lat="46.357941990718246" lon="6.511202026158571">
        <ele>608</ele>
        <time>2017-03-27T16:52:29Z</time>
      </trkpt>
      <trkpt lat="46.358002005144954" lon="6.510322010144591">
        <ele>608</ele>
        <time>2017-03-27T16:52:49Z</time>
      </trkpt>
      <trkpt lat="46.358326971530914" lon="6.509807026013732">
        <ele>610</ele>
        <time>2017-03-27T16:53:09Z</time>
      </trkpt>
      <trkpt lat="46.358326971530914" lon="6.511631011962891">
        <ele>611</ele>
        <time>2017-03-27T16:53:29Z</time>
      </trkpt>
      <trkpt lat="46.35676802136004" lon="6.514497958123684">
        <ele>613</ele>
        <time>2017-03-27T16:53:49Z</time>
      </trkpt>
      <trkpt lat="46.357288034632802" lon="6.514403996989131">
        <ele>614</ele>
        <time>2017-03-27T16:54:09Z</time>
      </trkpt>
      <trkpt lat="46.358170984312892" lon="6.514152036979795">
        <ele>613</ele>
        <time>2017-03-27T16:54:29Z</time>
      </trkpt>
      <trkpt lat="46.358471978455782" lon="6.514300983399153">
        <ele>610</ele>
        <time>2017-03-27T16:54:49Z</time>
      </trkpt>
      <trkpt lat="46.358588989824057" lon="6.514529976993799">
        <ele>609</ele>
        <time>2017-03-27T16:55:09Z</time>
      </trkpt>
      <trkpt lat="46.358790993690491" lon="6.515199020504952">
        <ele>604</ele>
        <time>2017-03-27T16:55:29Z</time>
      </trkpt>
      <trkpt lat="46.358479019254446" lon="6.516129998490214">
        <ele>598</ele>
        <time>2017-03-27T16:55:49Z</time>
      </trkpt>
      <trkpt lat="46.357078989967704" lon="6.516321022063494">
        <ele>616</ele>
        <time>2017-03-27T16:56:09Z</time>
      </trkpt>
      <trkpt lat="46.356755029410124" lon="6.516686975955963">
        <ele>617</ele>
        <time>2017-03-27T16:56:29Z</time>
      </trkpt>
      <trkpt lat="46.35606000199914" lon="6.517032980918884">
        <ele>619</ele>
        <time>2017-03-27T16:56:49Z</time>
      </trkpt>
      <trkpt lat="46.355499001219869" lon="6.517400024458766">
        <ele>619</ele>
        <time>2017-03-27T16:57:09Z</time>
      </trkpt>
      <trkpt lat="46.354399966076016" lon="6.517748041078448">
        <ele>618</ele>
        <time>2017-03-27T16:57:29Z</time>
      </trkpt>
      <trkpt lat="46.353909038007259" lon="6.518009975552559">
        <ele>619</ele>
        <time>2017-03-27T16:57:49Z</time>
      </trkpt>
      <trkpt lat="46.353563033044338" lon="6.517571015283465">
        <ele>620</ele>
        <time>2017-03-27T16:58:09Z</time>
      </trkpt>
      <trkpt lat="46.352762980386615" lon="6.518539963290095">
        <ele>622</ele>
        <time>2017-03-27T16:58:29Z</time>
      </trkpt>
      <trkpt lat="46.351881958544254" lon="6.519201966002584">
        <ele>624</ele>
        <time>2017-03-27T16:58:49Z</time>
      </trkpt>
      <trkpt lat="46.350688962265849" lon="6.519918031990528">
        <ele>631</ele>
        <time>2017-03-27T16:59:09Z</time>
      </trkpt>
      <trkpt lat="46.350126033648849" lon="6.52112896554172">
        <ele>634</ele>
        <time>2017-03-27T16:59:29Z</time>
      </trkpt>
      <trkpt lat="46.350328959524632" lon="6.521444041281939">
        <ele>633</ele>
        <time>2017-03-27T16:59:49Z</time>
      </trkpt>
      <trkpt lat="46.350540015846491" lon="6.522274017333984">
        <ele>629</ele>
        <time>2017-03-27T17:00:09Z</time>
      </trkpt>
      <trkpt lat="46.350203985348344" lon="6.522914981469512">
        <ele>626</ele>
        <time>2017-03-27T17:00:29Z</time>
      </trkpt>
      <trkpt lat="46.350106000900269" lon="6.523385960608721">
        <ele>624</ele>
        <time>2017-03-27T17:00:49Z</time>
      </trkpt>
      <trkpt lat="46.350007010623813" lon="6.523572960868478">
        <ele>621</ele>
        <time>2017-03-27T17:01:09Z</time>
      </trkpt>
      <trkpt lat="46.349892010912299" lon="6.524040000513196">
        <ele>632</ele>
        <time>2017-03-27T17:01:29Z</time>
      </trkpt>
      <trkpt lat="46.349655976518989" lon="6.52439396828413">
        <ele>629</ele>
        <time>2017-03-27T17:01:49Z</time>
      </trkpt>
      <trkpt lat="46.349198995158076" lon="6.524548027664423">
        <ele>633</ele>
        <time>2017-03-27T17:02:09Z</time>
      </trkpt>
      <trkpt lat="46.348844021558762" lon="6.524857990443707">
        <ele>639</ele>
        <time>2017-03-27T17:02:29Z</time>
      </trkpt>
      <trkpt lat="46.348556019365788" lon="6.525500966235995">
        <ele>634</ele>
        <time>2017-03-27T17:02:49Z</time>
      </trkpt>
      <trkpt lat="46.348257958889008" lon="6.52658399194479">
        <ele>642</ele>
        <time>2017-03-27T17:03:09Z</time>
      </trkpt>
      <trkpt lat="46.348249996080995" lon="6.526996968314052">
        <ele>643</ele>
        <time>2017-03-27T17:03:29Z</time>
      </trkpt>
      <trkpt lat="46.348449988290668" lon="6.528289960697293">
        <ele>637</ele>
        <time>2017-03-27T17:03:49Z</time>
      </trkpt>
      <trkpt lat="46.348312022164464" lon="6.528499005362392">
        <ele>638</ele>
        <time>2017-03-27T17:04:09Z</time>
      </trkpt>
      <trkpt lat="46.347834002226591" lon="6.528655998408794">
        <ele>635</ele>
        <time>2017-03-27T17:04:29Z</time>
      </trkpt>
      <trkpt lat="46.347452038899064" lon="6.528490958735347">
        <ele>634</ele>
        <time>2017-03-27T17:04:49Z</time>
      </trkpt>
      <trkpt lat="46.346776038408279" lon="6.527814958244562">
        <ele>645</ele>
        <time>2017-03-27T17:05:09Z</time>
      </trkpt>
      <trkpt lat="46.346734967082739" lon="6.5280029643327">
        <ele>643</ele>
        <time>2017-03-27T17:05:29Z</time>
      </trkpt>
      <trkpt lat="46.346498010680079" lon="6.528211003169417">
        <ele>646</ele>
        <time>2017-03-27T17:05:49Z</time>
      </trkpt>
      <trkpt lat="46.346000041812658" lon="6.528174038976431">
        <ele>652</ele>
        <time>2017-03-27T17:06:09Z</time>
      </trkpt>
      <trkpt lat="46.345757972449064" lon="6.528056021779776">
        <ele>661</ele>
        <time>2017-03-27T17:06:29Z</time>
      </trkpt>
      <trkpt lat="46.34563903324306" lon="6.528112012892962">
        <ele>661</ele>
        <time>2017-03-27T17:06:49Z</time>
      </trkpt>
      <trkpt lat="46.345379026606679" lon="6.528779966756702">
        <ele>650</ele>
        <time>2017-03-27T17:07:09Z</time>
      </trkpt>
      <trkpt lat="46.345156989991665" lon="6.529028993099928">
        <ele>652</ele>
        <time>2017-03-27T17:07:29Z</time>
      </trkpt>
      <trkpt lat="46.344592971727252" lon="6.529124965891242">
        <ele>669</ele>
        <time>2017-03-27T17:07:49Z</time>
      </trkpt>
      <trkpt lat="46.344515020027757" lon="6.529736006632447">
        <ele>657</ele>
        <time>2017-03-27T17:08:09Z</time>
      </trkpt>
      <trkpt lat="46.34437101893127" lon="6.530029959976673">
        <ele>654</ele>
        <time>2017-03-27T17:08:29Z</time>
      </trkpt>
      <trkpt lat="46.343911020085216" lon="6.530393986031413">
        <ele>673</ele>
        <time>2017-03-27T17:08:49Z</time>
      </trkpt>
      <trkpt lat="46.343871960416436" lon="6.5305379871279">
        <ele>673</ele>
        <time>2017-03-27T17:09:09Z</time>
      </trkpt>
      <trkpt lat="46.344140013679862" lon="6.530950963497162">
        <ele>670</ele>
        <time>2017-03-27T17:09:29Z</time>
      </trkpt>
      <trkpt lat="46.344291977584362" lon="6.531410040333867">
        <ele>661</ele>
        <time>2017-03-27T17:09:49Z</time>
      </trkpt>
      <trkpt lat="46.344581991434097" lon="6.531650014221668">
        <ele>657</ele>
        <time>2017-03-27T17:10:09Z</time>
      </trkpt>
      <trkpt lat="46.344662038609385" lon="6.531972968950868">
        <ele>657</ele>
        <time>2017-03-27T17:10:29Z</time>
      </trkpt>
      <trkpt lat="46.344607975333929" lon="6.532056033611298">
        <ele>658</ele>
        <time>2017-03-27T17:10:49Z</time>
      </trkpt>
      <trkpt lat="46.34372997097671" lon="6.531449016183615">
        <ele>682</ele>
        <time>2017-03-27T17:11:09Z</time>
      </trkpt>
      <trkpt lat="46.343009965494275" lon="6.530674025416374">
        <ele>693</ele>
        <time>2017-03-27T17:11:29Z</time>
      </trkpt>
      <trkpt lat="46.34306201711297" lon="6.529973968863487">
        <ele>689</ele>
        <time>2017-03-27T17:11:49Z</time>
      </trkpt>
      <trkpt lat="46.342971995472908" lon="6.529640033841133">
        <ele>690</ele>
        <time>2017-03-27T17:12:09Z</time>
      </trkpt>
      <trkpt lat="46.342506967484951" lon="6.530086034908891">
        <ele>694</ele>
        <time>2017-03-27T17:12:29Z</time>
      </trkpt>
      <trkpt lat="46.34196599945426" lon="6.530362972989678">
        <ele>701</ele>
        <time>2017-03-27T17:12:49Z</time>
      </trkpt>
      <trkpt lat="46.341334003955126" lon="6.530941994860768">
        <ele>709</ele>
        <time>2017-03-27T17:13:09Z</time>
      </trkpt>
      <trkpt lat="46.340791024267673" lon="6.531235026195645">
        <ele>716</ele>
        <time>2017-03-27T17:13:29Z</time>
      </trkpt>
      <trkpt lat="46.339931041002274" lon="6.532235993072391">
        <ele>723</ele>
        <time>2017-03-27T17:13:49Z</time>
      </trkpt>
      <trkpt lat="46.339878989383578" lon="6.532586021348834">
        <ele>723</ele>
        <time>2017-03-27T17:14:09Z</time>
      </trkpt>
      <trkpt lat="46.339440029114485" lon="6.533808019012213">
        <ele>726</ele>
        <time>2017-03-27T17:14:29Z</time>
      </trkpt>
      <trkpt lat="46.339414967224002" lon="6.533994013443589">
        <ele>726</ele>
        <time>2017-03-27T17:14:49Z</time>
      </trkpt>
      <trkpt lat="46.339349001646042" lon="6.534052016213536">
        <ele>727</ele>
        <time>2017-03-27T17:15:09Z</time>
      </trkpt>
      <trkpt lat="46.338951028883457" lon="6.535240989178419">
        <ele>737</ele>
        <time>2017-03-27T17:15:29Z</time>
      </trkpt>
      <trkpt lat="46.338943988084793" lon="6.535925036296248">
        <ele>744</ele>
        <time>2017-03-27T17:15:49Z</time>
      </trkpt>
      <trkpt lat="46.339063011109829" lon="6.536473967134953">
        <ele>747</ele>
        <time>2017-03-27T17:16:09Z</time>
      </trkpt>
      <trkpt lat="46.339123025536537" lon="6.537587000057101">
        <ele>759</ele>
        <time>2017-03-27T17:16:29Z</time>
      </trkpt>
      <trkpt lat="46.339569026604295" lon="6.539547024294734">
        <ele>768</ele>
        <time>2017-03-27T17:16:49Z</time>
      </trkpt>
      <trkpt lat="46.339634992182255" lon="6.54027197510004">
        <ele>776</ele>
        <time>2017-03-27T17:17:09Z</time>
      </trkpt>
      <trkpt lat="46.339419996365905" lon="6.542329983785749">
        <ele>793</ele>
        <time>2017-03-27T17:17:29Z</time>
      </trkpt>
      <trkpt lat="46.339511023834348" lon="6.544203003868461">
        <ele>776</ele>
        <time>2017-03-27T17:17:49Z</time>
      </trkpt>
      <trkpt lat="46.339442962780595" lon="6.544554037973285">
        <ele>773</ele>
        <time>2017-03-27T17:18:09Z</time>
      </trkpt>
      <trkpt lat="46.33927901275456" lon="6.544903982430697">
        <ele>777</ele>
        <time>2017-03-27T17:18:29Z</time>
      </trkpt>
      <trkpt lat="46.3387640286237" lon="6.54506198130548">
        <ele>789</ele>
        <time>2017-03-27T17:18:49Z</time>
      </trkpt>
      <trkpt lat="46.337544964626431" lon="6.545702023431659">
        <ele>809</ele>
        <time>2017-03-27T17:19:09Z</time>
      </trkpt>
      <trkpt lat="46.337467012926936" lon="6.54600796289742">
        <ele>818</ele>
        <time>2017-03-27T17:19:29Z</time>
      </trkpt>
      <trkpt lat="46.337534990161657" lon="6.546542979776859">
        <ele>802</ele>
        <time>2017-03-27T17:19:49Z</time>
      </trkpt>
      <trkpt lat="46.337558040395379" lon="6.546854032203555">
        <ele>796</ele>
        <time>2017-03-27T17:20:09Z</time>
      </trkpt>
      <trkpt lat="46.337446980178356" lon="6.54716701246798">
        <ele>818</ele>
        <time>2017-03-27T17:20:29Z</time>
      </trkpt>
      <trkpt lat="46.337187979370356" lon="6.547631034627557">
        <ele>816</ele>
        <time>2017-03-27T17:20:49Z</time>
      </trkpt>
      <trkpt lat="46.337172975763679" lon="6.547820968553424">
        <ele>816</ele>
        <time>2017-03-27T17:21:09Z</time>
      </trkpt>
      <trkpt lat="46.337366010993719" lon="6.548237968236208">
        <ele>806</ele>
        <time>2017-03-27T17:21:29Z</time>
      </trkpt>
      <trkpt lat="46.337397024035454" lon="6.548493029549718">
        <ele>800</ele>
        <time>2017-03-27T17:21:49Z</time>
      </trkpt>
      <trkpt lat="46.337384032085538" lon="6.548758987337351">
        <ele>799</ele>
        <time>2017-03-27T17:22:09Z</time>
      </trkpt>
      <trkpt lat="46.336189024150372" lon="6.550097996369004">
        <ele>806</ele>
        <time>2017-03-27T17:22:29Z</time>
      </trkpt>
      <trkpt lat="46.335875960066915" lon="6.550728986039758">
        <ele>811</ele>
        <time>2017-03-27T17:22:49Z</time>
      </trkpt>
      <trkpt lat="46.335941003635526" lon="6.551408004015684">
        <ele>791</ele>
        <time>2017-03-27T17:23:09Z</time>
      </trkpt>
      <trkpt lat="46.335819968953729" lon="6.551911002025008">
        <ele>816</ele>
        <time>2017-03-27T17:23:29Z</time>
      </trkpt>
      <trkpt lat="46.335121002048254" lon="6.553830960765481">
        <ele>808</ele>
        <time>2017-03-27T17:23:49Z</time>
      </trkpt>
      <trkpt lat="46.335131982341409" lon="6.554674012586474">
        <ele>805</ele>
        <time>2017-03-27T17:24:09Z</time>
      </trkpt>
      <trkpt lat="46.334849009290338" lon="6.555532990023494">
        <ele>834</ele>
        <time>2017-03-27T17:24:29Z</time>
      </trkpt>
      <trkpt lat="46.334506021812558" lon="6.556370006874204">
        <ele>827</ele>
        <time>2017-03-27T17:24:49Z</time>
      </trkpt>
      <trkpt lat="46.334377024322748" lon="6.556509984657168">
        <ele>829</ele>
        <time>2017-03-27T17:25:09Z</time>
      </trkpt>
      <trkpt lat="46.333994977176189" lon="6.557222027331591">
        <ele>842</ele>
        <time>2017-03-27T17:25:29Z</time>
      </trkpt>
      <trkpt lat="46.33362902328372" lon="6.557848993688822">
        <ele>838</ele>
        <time>2017-03-27T17:25:49Z</time>
      </trkpt>
      <trkpt lat="46.333080008625984" lon="6.559269977733493">
        <ele>844</ele>
        <time>2017-03-27T17:26:09Z</time>
      </trkpt>
      <trkpt lat="46.332966014742851" lon="6.55997003428638">
        <ele>844</ele>
        <time>2017-03-27T17:26:29Z</time>
      </trkpt>
      <trkpt lat="46.332714976742864" lon="6.560774026438594">
        <ele>841</ele>
        <time>2017-03-27T17:26:49Z</time>
      </trkpt>
      <trkpt lat="46.332300994545221" lon="6.561658987775445">
        <ele>845</ele>
        <time>2017-03-27T17:27:09Z</time>
      </trkpt>
      <trkpt lat="46.332096979022026" lon="6.561832996085286">
        <ele>839</ele>
        <time>2017-03-27T17:27:29Z</time>
      </trkpt>
      <trkpt lat="46.331315031275153" lon="6.562016978859901">
        <ele>847</ele>
        <time>2017-03-27T17:27:49Z</time>
      </trkpt>
      <trkpt lat="46.330898031592369" lon="6.561869960278273">
        <ele>850</ele>
        <time>2017-03-27T17:28:09Z</time>
      </trkpt>
      <trkpt lat="46.330265030264854" lon="6.5619479957968">
        <ele>852</ele>
        <time>2017-03-27T17:28:29Z</time>
      </trkpt>
      <trkpt lat="46.329231038689613" lon="6.561929974704981">
        <ele>855</ele>
        <time>2017-03-27T17:28:49Z</time>
      </trkpt>
      <trkpt lat="46.328781014308333" lon="6.561780022457242">
        <ele>852</ele>
        <time>2017-03-27T17:29:09Z</time>
      </trkpt>
      <trkpt lat="46.328082969412208" lon="6.56130401417613">
        <ele>852</ele>
        <time>2017-03-27T17:29:29Z</time>
      </trkpt>
    </trkseg>
  </trk>

</gpx>