<?xml version="1.0" encoding="UTF-8"?>
<gpx xmlns="http://www.topografix.com/GPX/1/1" xmlns:gpx_style="http://www.topografix.com/GPX/gpx_style/0/2" xmlns:gpxpx="http://www.garmin.com/xmlschemas/PowerExtension/v1" xmlns:gpxtpx="http://www.garmin.com/xmlschemas/TrackPointExtension/v1" xmlns:gpxx="http://www.garmin.com/xmlschemas/GpxExtensions/v3" xmlns:xsi="http://www.w3.org/2001/XMLSchema-instance" xsi:schemaLocation="http://www.topografix.com/GPX/1/1 http://www.topografix.com/GPX/1/1/gpx.xsd http://www.garmin.com/xmlschemas/GpxExtensions/v3 http://www.garmin.com/xmlschemas/GpxExtensionsv3.xsd http://www.garmin.com/xmlschemas/TrackPointExtension/v1 http://www.garmin.com/xmlschemas/TrackPointExtensionv1.xsd http://www.garmin.com/xmlschemas/PowerExtension/v1 http://www.garmin.com/xmlschemas/PowerExtensionv1.xsd http://www.topografix.com/GPX/gpx_style/0/2 http://www.topografix.com/GPX/gpx_style/0/2/gpx_style.xsd" version="1.1" creator="Garmin Desktop App">
  <metadata>
    <name>Part 10b - FR St Gingolph to Col de Bise (off route)</name>
    <author>
      <name>gpx.studio</name>
      <link href="https://gpx.studio">
      </link>
    </author>
    <link href="http://www.garmin.com">
      <text>Garmin International</text>
    </link>
    <time>2018-04-18T11:06:25Z</time>
  </metadata>
  <trk>
    <name>Part 10b - FR St Gingolph to Col de Bise (off route)</name>
    <trkseg>
      <trkpt lat="46.3932899851352" lon="6.801089979708195">
        <ele>391.77909370008877</ele>
        <time>2018-01-05T04:47:22Z</time>
      </trkpt>
      <trkpt lat="46.392920007929206" lon="6.801819959655404">
        <ele>399.5424549358436</ele>
        <time>2018-01-05T04:47:12Z</time>
      </trkpt>
      <trkpt lat="46.39243997633457" lon="6.802079966291785">
        <ele>407.27575196807925</ele>
        <time>2018-01-05T04:47:04Z</time>
      </trkpt>
      <trkpt lat="46.39170002192259" lon="6.801819959655404">
        <ele>417.52118843995765</ele>
        <time>2018-01-05T04:46:51Z</time>
      </trkpt>
      <trkpt lat="46.390899969264865" lon="6.801129961386323">
        <ele>428.7399842910236</ele>
        <time>2018-01-05T04:46:35Z</time>
      </trkpt>
      <trkpt lat="46.39006999321282" lon="6.800880013033748">
        <ele>439.9939675301321</ele>
        <time>2018-01-05T04:46:21Z</time>
      </trkpt>
      <trkpt lat="46.38859000056982" lon="6.801259964704514">
        <ele>459.89230355909035</ele>
        <time>2018-01-05T04:45:56Z</time>
      </trkpt>
      <trkpt lat="46.38665998354554" lon="6.800829973071814">
        <ele>511.4622271414029</ele>
        <time>2018-01-05T04:45:24Z</time>
      </trkpt>
      <trkpt lat="46.38564996421337" lon="6.801180001348257">
        <ele>531.5246488151547</ele>
        <time>2018-01-05T04:45:07Z</time>
      </trkpt>
      <trkpt lat="46.38481001369655" lon="6.801560036838055">
        <ele>547.940300001927</ele>
        <time>2018-01-05T04:44:52Z</time>
      </trkpt>
      <trkpt lat="46.38444003649056" lon="6.802510041743517">
        <ele>550.5321941694608</ele>
        <time>2018-01-05T04:44:40Z</time>
      </trkpt>
      <trkpt lat="46.383980037644506" lon="6.802810030058026">
        <ele>558.7593177830192</ele>
        <time>2018-01-05T04:44:31Z</time>
      </trkpt>
      <trkpt lat="46.38340998440981" lon="6.803749976679683">
        <ele>589.801315246538</ele>
        <time>2018-01-05T04:44:17Z</time>
      </trkpt>
      <trkpt lat="46.38317001052201" lon="6.805549990385771">
        <ele>585.4228832606237</ele>
        <time>2018-01-05T04:43:56Z</time>
      </trkpt>
      <trkpt lat="46.38278997503221" lon="6.805770015344024">
        <ele>609.0912634455419</ele>
        <time>2018-01-05T04:43:49Z</time>
      </trkpt>
      <trkpt lat="46.381639977917075" lon="6.804869966581464">
        <ele>670.313418794325</ele>
        <time>2018-01-05T04:43:28Z</time>
      </trkpt>
      <trkpt lat="46.38074001297355" lon="6.805040035396814">
        <ele>688.2053988903306</ele>
        <time>2018-01-05T04:43:13Z</time>
      </trkpt>
      <trkpt lat="46.379360016435385" lon="6.805170038715005">
        <ele>713.3878523224043</ele>
        <time>2018-01-05T04:42:50Z</time>
      </trkpt>
      <trkpt lat="46.37802000157535" lon="6.803839998319745">
        <ele>767.61272620706</ele>
        <time>2018-01-05T04:42:23Z</time>
      </trkpt>
      <trkpt lat="46.37699003331363" lon="6.803189981728792">
        <ele>768.144331813604</ele>
        <time>2018-01-05T04:42:04Z</time>
      </trkpt>
      <trkpt lat="46.37643003836274" lon="6.801819959655404">
        <ele>787.3358668188196</ele>
        <time>2018-01-05T04:41:46Z</time>
      </trkpt>
      <trkpt lat="46.37559000402689" lon="6.800699969753623">
        <ele>804.421725693771</ele>
        <time>2018-01-05T04:41:27Z</time>
      </trkpt>
      <trkpt lat="46.37493001297116" lon="6.799549972638488">
        <ele>812.9295911979633</ele>
        <time>2018-01-05T04:41:10Z</time>
      </trkpt>
      <trkpt lat="46.37477000243962" lon="6.798859974369407">
        <ele>824.8136923745624</ele>
        <time>2018-01-05T04:41:01Z</time>
      </trkpt>
      <trkpt lat="46.374400025233626" lon="6.798109961673617">
        <ele>830.349728274765</ele>
        <time>2018-01-05T04:40:51Z</time>
      </trkpt>
      <trkpt lat="46.37394002638757" lon="6.797660021111369">
        <ele>832.5893637391366</ele>
        <time>2018-01-05T04:40:42Z</time>
      </trkpt>
      <trkpt lat="46.373819997534156" lon="6.796989971771836">
        <ele>846.9777003487438</ele>
        <time>2018-01-05T04:40:34Z</time>
      </trkpt>
      <trkpt lat="46.373390005901456" lon="6.796199977397919">
        <ele>853.011471196407</ele>
        <time>2018-01-05T04:40:22Z</time>
      </trkpt>
      <trkpt lat="46.37277997098863" lon="6.79557996802032">
        <ele>857.3644882220484</ele>
        <time>2018-01-05T04:40:10Z</time>
      </trkpt>
      <trkpt lat="46.3723099976778" lon="6.795000024139881">
        <ele>867.5329095188537</ele>
        <time>2018-01-05T04:40:00Z</time>
      </trkpt>
      <trkpt lat="46.37188998050988" lon="6.794700035825372">
        <ele>865.5267300401819</ele>
        <time>2018-01-05T04:39:52Z</time>
      </trkpt>
      <trkpt lat="46.37148999609053" lon="6.793899983167648">
        <ele>873.5882829579529</ele>
        <time>2018-01-05T04:39:41Z</time>
      </trkpt>
      <trkpt lat="46.37112001888454" lon="6.793560013175011">
        <ele>874.7978523625064</ele>
        <time>2018-01-05T04:39:33Z</time>
      </trkpt>
      <trkpt lat="46.3710200227797" lon="6.793170003220439">
        <ele>883.89064288158</ele>
        <time>2018-01-05T04:39:29Z</time>
      </trkpt>
      <trkpt lat="46.370360031723976" lon="6.792210023850203">
        <ele>899.436775901773</ele>
        <time>2018-01-05T04:39:13Z</time>
      </trkpt>
      <trkpt lat="46.37017001397908" lon="6.791609963402152">
        <ele>910.732725073567</ele>
        <time>2018-01-05T04:39:06Z</time>
      </trkpt>
      <trkpt lat="46.37011997401714" lon="6.790749980136752">
        <ele>916.5409875432999</ele>
        <time>2018-01-05T04:38:56Z</time>
      </trkpt>
      <trkpt lat="46.36972996406257" lon="6.789439972490072">
        <ele>939.9119187992776</ele>
        <time>2018-01-05T04:38:39Z</time>
      </trkpt>
      <trkpt lat="46.36948999017477" lon="6.789220031350851">
        <ele>946.8675041080454</ele>
        <time>2018-01-05T04:38:35Z</time>
      </trkpt>
      <trkpt lat="46.36928002350032" lon="6.789120035246015">
        <ele>954.6135823884523</ele>
        <time>2018-01-05T04:38:31Z</time>
      </trkpt>
      <trkpt lat="46.36903996579349" lon="6.789399990811944">
        <ele>956.197205802488</ele>
        <time>2018-01-05T04:38:26Z</time>
      </trkpt>
      <trkpt lat="46.36886998079717" lon="6.789330001920462">
        <ele>959.6318614605358</ele>
        <time>2018-01-05T04:38:23Z</time>
      </trkpt>
      <trkpt lat="46.36899000965059" lon="6.789139984175563">
        <ele>961.6211325294615</ele>
        <time>2018-01-05T04:38:20Z</time>
      </trkpt>
      <trkpt lat="46.36879999190569" lon="6.788170030340552">
        <ele>972.1888306582357</ele>
        <time>2018-01-05T04:38:08Z</time>
      </trkpt>
      <trkpt lat="46.368170008063316" lon="6.787980012595654">
        <ele>974.7317693500086</ele>
        <time>2018-01-05T04:37:58Z</time>
      </trkpt>
      <trkpt lat="46.36784998700023" lon="6.787740038707852">
        <ele>979.1559372259483</ele>
        <time>2018-01-05T04:37:52Z</time>
      </trkpt>
      <trkpt lat="46.36765996925533" lon="6.786779975518584">
        <ele>993.2464765211624</ele>
        <time>2018-01-05T04:37:40Z</time>
      </trkpt>
      <trkpt lat="46.36768997646868" lon="6.785710025578737">
        <ele>1006.6793880251838</ele>
        <time>2018-01-05T04:37:28Z</time>
      </trkpt>
      <trkpt lat="46.36787001974881" lon="6.784779969602823">
        <ele>1027.6589406191374</ele>
        <time>2018-01-05T04:37:17Z</time>
      </trkpt>
      <trkpt lat="46.367719983682036" lon="6.783840022981167">
        <ele>1040.0871768040731</ele>
        <time>2018-01-05T04:37:06Z</time>
      </trkpt>
      <trkpt lat="46.36768997646868" lon="6.782679967582226">
        <ele>1056.908333277144</ele>
        <time>2018-01-05T04:36:53Z</time>
      </trkpt>
      <trkpt lat="46.367350006476045" lon="6.780530009418726">
        <ele>1074.5733510359316</ele>
        <time>2018-01-05T04:36:27Z</time>
      </trkpt>
      <trkpt lat="46.367050018161535" lon="6.780019970610738">
        <ele>1074.5131893152636</ele>
        <time>2018-01-05T04:36:20Z</time>
      </trkpt>
      <trkpt lat="46.366769978776574" lon="6.779399961233139">
        <ele>1075.1260421194156</ele>
        <time>2018-01-05T04:36:11Z</time>
      </trkpt>
      <trkpt lat="46.366520030424" lon="6.77783003076911">
        <ele>1091.0245637846328</ele>
        <time>2018-01-05T04:35:53Z</time>
      </trkpt>
      <trkpt lat="46.36626002378762" lon="6.776969963684678">
        <ele>1097.9088662535887</ele>
        <time>2018-01-05T04:35:42Z</time>
      </trkpt>
      <trkpt lat="46.36567999608815" lon="6.77606999874115">
        <ele>1108.1359743271496</ele>
        <time>2018-01-05T04:35:28Z</time>
      </trkpt>
      <trkpt lat="46.36560003273189" lon="6.774910027161241">
        <ele>1128.7887289079795</ele>
        <time>2018-01-05T04:35:15Z</time>
      </trkpt>
      <trkpt lat="46.36522997170687" lon="6.773949963971973">
        <ele>1142.6489771907684</ele>
        <time>2018-01-05T04:35:02Z</time>
      </trkpt>
      <trkpt lat="46.364989997819066" lon="6.773070031777024">
        <ele>1155.0011286467852</ele>
        <time>2018-01-05T04:34:51Z</time>
      </trkpt>
      <trkpt lat="46.36489000171423" lon="6.772020030766726">
        <ele>1180.25865726973</ele>
        <time>2018-01-05T04:34:39Z</time>
      </trkpt>
      <trkpt lat="46.36522997170687" lon="6.770810019224882">
        <ele>1204.1816992624206</ele>
        <time>2018-01-05T04:34:24Z</time>
      </trkpt>
      <trkpt lat="46.36509996838868" lon="6.770080039277673">
        <ele>1215.6436872855768</ele>
        <time>2018-01-05T04:34:16Z</time>
      </trkpt>
      <trkpt lat="46.364859994500875" lon="6.770209958776832">
        <ele>1210.0970669626793</ele>
        <time>2018-01-05T04:34:11Z</time>
      </trkpt>
      <trkpt lat="46.364729991182685" lon="6.770529979839921">
        <ele>1202.7863627894558</ele>
        <time>2018-01-05T04:34:07Z</time>
      </trkpt>
      <trkpt lat="46.36436001397669" lon="6.770489998161793">
        <ele>1200.717957333824</ele>
        <time>2018-01-05T04:34:01Z</time>
      </trkpt>
      <trkpt lat="46.36393999680877" lon="6.770229991525412">
        <ele>1202.6261877038085</ele>
        <time>2018-01-05T04:33:53Z</time>
      </trkpt>
      <trkpt lat="46.36373003013432" lon="6.770640034228563">
        <ele>1197.3602252373294</ele>
        <time>2018-01-05T04:33:47Z</time>
      </trkpt>
      <trkpt lat="46.363310012966394" lon="6.770190009847283">
        <ele>1199.2676423074454</ele>
        <time>2018-01-05T04:33:39Z</time>
      </trkpt>
      <trkpt lat="46.363140027970076" lon="6.769549967721105">
        <ele>1201.6077161302037</ele>
        <time>2018-01-05T04:33:31Z</time>
      </trkpt>
      <trkpt lat="46.362880021333694" lon="6.769079994410276">
        <ele>1204.1380202894452</ele>
        <time>2018-01-05T04:33:24Z</time>
      </trkpt>
      <trkpt lat="46.36265002191067" lon="6.768320007249713">
        <ele>1213.7059391957018</ele>
        <time>2018-01-05T04:33:15Z</time>
      </trkpt>
      <trkpt lat="46.36233000084758" lon="6.767899990081787">
        <ele>1219.0745759552356</ele>
        <time>2018-01-05T04:33:07Z</time>
      </trkpt>
      <trkpt lat="46.362000005319715" lon="6.768629970028997">
        <ele>1228.3440408889653</ele>
        <time>2018-01-05T04:32:57Z</time>
      </trkpt>
      <trkpt lat="46.361530032008886" lon="6.769100027158856">
        <ele>1238.299307719171</ele>
        <time>2018-01-05T04:32:48Z</time>
      </trkpt>
      <trkpt lat="46.360970037057996" lon="6.768929958343506">
        <ele>1227.1727366811715</ele>
        <time>2018-01-05T04:32:38Z</time>
      </trkpt>
      <trkpt lat="46.3599200360477" lon="6.768069975078106">
        <ele>1230.692273813599</ele>
        <time>2018-01-05T04:32:18Z</time>
      </trkpt>
      <trkpt lat="46.359400022774935" lon="6.768129989504814">
        <ele>1242.8932126305815</ele>
        <time>2018-01-05T04:32:10Z</time>
      </trkpt>
      <trkpt lat="46.359080001711845" lon="6.768710017204285">
        <ele>1248.5681400002484</ele>
        <time>2018-01-05T04:32:01Z</time>
      </trkpt>
      <trkpt lat="46.35859997011721" lon="6.768929958343506">
        <ele>1258.8559505956723</ele>
        <time>2018-01-05T04:31:53Z</time>
      </trkpt>
      <trkpt lat="46.35812999680638" lon="6.768710017204285">
        <ele>1261.6076451321046</ele>
        <time>2018-01-05T04:31:45Z</time>
      </trkpt>
      <trkpt lat="46.357470005750656" lon="6.768629970028997">
        <ele>1280.9687865811932</ele>
        <time>2018-01-05T04:31:34Z</time>
      </trkpt>
      <trkpt lat="46.357019981369376" lon="6.768800038844347">
        <ele>1296.7316752787424</ele>
        <time>2018-01-05T04:31:26Z</time>
      </trkpt>
      <trkpt lat="46.355750039219856" lon="6.770229991525412">
        <ele>1334.496398853385</ele>
        <time>2018-01-05T04:30:59Z</time>
      </trkpt>
      <trkpt lat="46.35556002147496" lon="6.767660016193986">
        <ele>1386.0369657258502</ele>
        <time>2018-01-05T04:30:30Z</time>
      </trkpt>
      <trkpt lat="46.355170011520386" lon="6.765539981424809">
        <ele>1458.3132130670365</ele>
        <time>2018-01-05T04:30:05Z</time>
      </trkpt>
      <trkpt lat="46.3546700309962" lon="6.765339989215136">
        <ele>1459.4150421366448</ele>
        <time>2018-01-05T04:29:56Z</time>
      </trkpt>
      <trkpt lat="46.354419998824596" lon="6.765560014173389">
        <ele>1466.6389313199907</ele>
        <time>2018-01-05T04:29:51Z</time>
      </trkpt>
      <trkpt lat="46.35392999276519" lon="6.764930030331016">
        <ele>1496.5360558839864</ele>
        <time>2018-01-05T04:29:40Z</time>
      </trkpt>
      <trkpt lat="46.35373997502029" lon="6.764930030331016">
        <ele>1507.0987121787587</ele>
        <time>2018-01-05T04:29:37Z</time>
      </trkpt>
      <trkpt lat="46.353469993919134" lon="6.765079982578754">
        <ele>1523.0089788860469</ele>
        <time>2018-01-05T04:29:32Z</time>
      </trkpt>
      <trkpt lat="46.35313999839127" lon="6.765599995851517">
        <ele>1534.0283174566925</ele>
        <time>2018-01-05T04:29:24Z</time>
      </trkpt>
      <trkpt lat="46.35278997011483" lon="6.765170004218817">
        <ele>1558.1257923785147</ele>
        <time>2018-01-05T04:29:17Z</time>
      </trkpt>
      <trkpt lat="46.352159986272454" lon="6.765079982578754">
        <ele>1602.9147502682677</ele>
        <time>2018-01-05T04:29:06Z</time>
      </trkpt>
      <trkpt lat="46.35224003344774" lon="6.765560014173389">
        <ele>1590.9441008730832</ele>
        <time>2018-01-05T04:29:01Z</time>
      </trkpt>
      <trkpt lat="46.351969968527555" lon="6.765490025281906">
        <ele>1622.932370907735</ele>
        <time>2018-01-05T04:28:56Z</time>
      </trkpt>
      <trkpt lat="46.351709961891174" lon="6.766050020232797">
        <ele>1646.488663987537</ele>
        <time>2018-01-05T04:28:48Z</time>
      </trkpt>
      <trkpt lat="46.351260021328926" lon="6.765660010278225">
        <ele>1687.1476138796534</ele>
        <time>2018-01-05T04:28:40Z</time>
      </trkpt>
      <trkpt lat="46.35094000026584" lon="6.765660010278225">
        <ele>1684.4012123353823</ele>
        <time>2018-01-05T04:28:34Z</time>
      </trkpt>
      <trkpt lat="46.35051998309791" lon="6.765079982578754">
        <ele>1690.0428239464104</ele>
        <time>2018-01-05T04:28:25Z</time>
      </trkpt>
      <trkpt lat="46.35019996203482" lon="6.764329969882965">
        <ele>1702.6454199816171</ele>
        <time>2018-01-05T04:28:15Z</time>
      </trkpt>
      <trkpt lat="46.349929980933666" lon="6.76320000551641">
        <ele>1736.8961755505304</ele>
        <time>2018-01-05T04:28:01Z</time>
      </trkpt>
      <trkpt lat="46.34978002868593" lon="6.761989993974567">
        <ele>1767.8244279501034</ele>
        <time>2018-01-05T04:27:47Z</time>
      </trkpt>
      <trkpt lat="46.34949001483619" lon="6.76057999022305">
        <ele>1786.04761992877</ele>
        <time>2018-01-05T04:27:30Z</time>
      </trkpt>
      <trkpt lat="46.3491200376302" lon="6.759420018643141">
        <ele>1813.831657789835</ele>
        <time>2018-01-05T04:27:15Z</time>
      </trkpt>
      <trkpt lat="46.34880001656711" lon="6.75870998762548">
        <ele>1826.387733055326</ele>
        <time>2018-01-05T04:27:06Z</time>
      </trkpt>
    </trkseg>
  </trk>
</gpx>